{
"type": "FeatureCollection",
"name": "Москва simplified",
"crs": { "type": "name", "properties": { "name": "urn:ogc:def:crs:OGC:1.3:CRS84" } },
"features": [
{ "type": "Feature", "properties": { "id": "relation\/102269", "@id": "relation\/102269", "ISO3166-2": "RU-MOW", "addr:country": "RU", "addr:region": "Москва", "admin_level": "4", "border_type": "region", "boundary": "administrative", "gost_7.67-2003": "РОФ-МОС", "int_ref": "RU-MOW", "name": "Москва", "name:be": "Масква", "name:ca": "Moscou", "name:cs": "Moskva", "name:de": "Moskau", "name:en": "Moscow", "name:eo": "Moskvo", "name:fi": "Moskova", "name:fr": "Moscou", "name:fy": "Moskou", "name:hr": "Moskva", "name:ja": "モスクワ", "name:lt": "Maskva", "name:nl": "Moskou", "name:no": "Moskva", "name:pl": "Moskwa", "name:ru": "Москва", "name:sk": "Moskva", "name:tzl": "Moscal", "official_status": "ru:город федерального значения", "ref": "RU-MOW", "ssrf:code": "77", "type": "boundary", "wikidata": "Q649", "wikipedia": "ru:Москва", "@relations": null }, "geometry": { "type": "MultiPolygon", "coordinates": [ [ [ [ 36.9, 55.31 ], [ 36.91, 55.31 ], [ 36.92, 55.32 ], [ 36.91, 55.33 ], [ 36.9, 55.31 ] ] ], [ [ [ 36.91, 55.75 ], [ 37.0, 55.71 ], [ 37.13, 55.73 ], [ 36.98, 55.76 ], [ 36.91, 55.75 ] ] ], [ [ [ 37.3, 55.8 ], [ 37.3, 55.8 ], [ 37.29, 55.8 ], [ 37.29, 55.8 ], [ 37.3, 55.8 ] ] ], [ [ [ 37.79, 56.0 ], [ 37.8, 56.0 ], [ 37.8, 56.0 ], [ 37.79, 56.0 ], [ 37.79, 56.0 ], [ 37.79, 56.0 ] ] ], [ [ [ 37.79, 56.01 ], [ 37.8, 56.01 ], [ 37.8, 56.01 ], [ 37.79, 56.01 ], [ 37.79, 56.01 ] ] ], [ [ [ 37.23, 56.0 ], [ 37.19, 56.02 ], [ 37.13, 56.02 ], [ 37.2, 55.95 ], [ 37.23, 56.0 ] ] ], [ [ [ 37.88, 55.82 ], [ 37.87, 55.82 ], [ 37.85, 55.81 ], [ 37.9, 55.82 ], [ 37.88, 55.82 ] ] ], [ [ [ 37.87, 55.82 ], [ 37.87, 55.82 ], [ 37.88, 55.82 ], [ 37.87, 55.82 ], [ 37.87, 55.82 ] ] ], [ [ [ 37.29, 55.65 ], [ 37.29, 55.65 ], [ 37.29, 55.65 ], [ 37.29, 55.65 ], [ 37.29, 55.65 ] ] ], [ [ [ 37.84, 55.81 ], [ 37.34, 55.96 ], [ 37.42, 55.66 ], [ 37.1, 55.6 ], [ 37.15, 55.44 ], [ 36.8, 55.44 ], [ 37.17, 55.16 ], [ 37.41, 55.25 ], [ 37.39, 55.47 ], [ 37.96, 55.67 ], [ 37.84, 55.81 ] ] ] ] } }
]
}
