{
"type": "FeatureCollection",
"generator": "JOSM",
"name": "tokyo_yamanote_line",
"features": [
{ "type": "Feature", "properties": { "bridge": "yes", "electrified": "contact_line", "frequency": "0", "gauge": "1067", "layer": "1", "maxspeed": "90", "name": "山手線", "name:de": "Yamanote-Linie", "name:en": "Yamanote Line", "name:es": "Línea Yamanote", "name:ja": "山手線", "name:ja_rm": "Yamanote-sen", "operator": "東日本旅客鉄道", "operator:en": "East Japan Railway", "operator:ja": "東日本旅客鉄道", "operator:ja_rm": "Higashi-Nihon Ryokaku Tetsudō", "railway": "rail", "source": "Bing", "usage": "main", "voltage": "1500" }, "geometry": { "type": "LineString", "coordinates": [ [ 37.644699261708048, 55.758556432667689 ], [ 37.64457076170806, 55.758257632667686 ] ] } },
{ "type": "Feature", "properties": { "electrified": "contact_line", "frequency": "0", "gauge": "1067", "layer": "-1", "maxspeed": "90", "name": "山手線", "name:de": "Yamanote-Linie", "name:en": "Yamanote Line", "name:es": "Línea Yamanote", "name:ja": "山手線", "name:ja_rm": "Yamanote-sen", "operator": "東日本旅客鉄道", "operator:en": "East Japan Railway", "operator:ja": "東日本旅客鉄道", "operator:ja_rm": "Higashi-Nihon Ryokaku Tetsudō", "railway": "rail", "source": "Bing", "usage": "main", "voltage": "1500", "name:ja_kana": "やまのてせん", "name:ru": "Линия JR Яманотэ", "railway:traffic_mode": "passenger", "tunnel": "building_passage" }, "geometry": { "type": "LineString", "coordinates": [ [ 37.582496461708054, 55.792187632667684 ], [ 37.582736661708061, 55.793011932667689 ] ] } },
{ "type": "Feature", "properties": { "bridge": "yes", "electrified": "contact_line", "frequency": "0", "gauge": "1067", "layer": "1", "maxspeed": "90", "name": "山手線", "name:de": "Yamanote-Linie", "name:en": "Yamanote Line", "name:ja": "山手線", "name:ja_rm": "Yamanote-sen", "operator": "東日本旅客鉄道", "operator:en": "East Japan Railway", "operator:ja": "東日本旅客鉄道", "operator:ja_rm": "Higashi-Nihon Ryokaku Tetsudō", "railway": "rail", "source": "Bing", "usage": "main", "voltage": "1500" }, "geometry": { "type": "LineString", "coordinates": [ [ 37.646648861708066, 55.768169332667689 ], [ 37.646636361708069, 55.768088232667687 ], [ 37.64662646170806, 55.768029032667684 ] ] } },
{ "type": "Feature", "properties": { "electrified": "contact_line", "frequency": "0", "gauge": "1067", "layer": "1", "maxspeed": "90", "name": "山手線 (Yamanote Line)", "name:de": "Yamanote-Linie", "name:en": "Yamanote Line", "name:ja": "山手線", "name:ja_rm": "Yamanote-sen", "operator": "東日本旅客鉄道", "operator:en": "East Japan Railway", "operator:ja": "東日本旅客鉄道", "operator:ja_rm": "Higashi-Nihon Ryokaku Tetsudō", "railway": "rail", "source": "Bing", "usage": "main", "voltage": "1500", "name:ja_kana": "やまのてせん", "name:ru": "Линия JR Яманотэ", "railway:traffic_mode": "passenger" }, "geometry": { "type": "LineString", "coordinates": [ [ 37.572141361708056, 55.761189932667683 ], [ 37.572184561708049, 55.761321932667684 ], [ 37.572282261708047, 55.761706432667687 ] ] } },
{ "type": "Feature", "properties": { "bridge": "viaduct", "electrified": "contact_line", "frequency": "0", "gauge": "1067", "layer": "1", "maxspeed": "90", "name": "山手線", "name:de": "Yamanote-Linie", "name:en": "Yamanote Line", "name:es": "Línea Yamanote", "name:ja": "山手線", "name:ja_rm": "Yamanote-sen", "operator": "東日本旅客鉄道", "operator:en": "East Japan Railway", "operator:ja": "東日本旅客鉄道", "operator:ja_rm": "Higashi-Nihon Ryokaku Tetsudō", "railway": "rail", "source": "Bing", "usage": "main", "voltage": "1500", "name:ru": "Линия JR Яманотэ", "name:ko": "야마노테선" }, "geometry": { "type": "LineString", "coordinates": [ [ 37.645370661708064, 55.761235532667683 ], [ 37.645347861708053, 55.761053932667686 ], [ 37.645277361708061, 55.76050643266769 ], [ 37.645252161708051, 55.760318632667683 ], [ 37.64520796170806, 55.760089532667685 ], [ 37.645107361708064, 55.75966493266769 ], [ 37.644976961708046, 55.759255032667689 ], [ 37.644870561708053, 55.758964432667689 ], [ 37.644699261708048, 55.758556432667689 ] ] } },
{ "type": "Feature", "properties": { "bridge": "yes", "electrified": "contact_line", "frequency": "0", "gauge": "1067", "layer": "1", "maxspeed": "90", "name": "山手線", "name:de": "Yamanote-Linie", "name:en": "Yamanote Line", "name:es": "Línea Yamanote", "name:ja": "山手線", "name:ja_rm": "Yamanote-sen", "operator": "東日本旅客鉄道", "operator:en": "East Japan Railway", "operator:ja": "東日本旅客鉄道", "operator:ja_rm": "Higashi-Nihon Ryokaku Tetsudō", "railway": "rail", "source": "Bing", "usage": "main", "voltage": "1500" }, "geometry": { "type": "LineString", "coordinates": [ [ 37.630979361708064, 55.727294432667684 ], [ 37.630998261708051, 55.727121432667687 ] ] } },
{ "type": "Feature", "properties": { "bridge": "yes", "electrified": "contact_line", "frequency": "0", "gauge": "1067", "layer": "1", "maxspeed": "90", "name": "山手線 (Yamanote Line)", "name:de": "Yamanote-Linie", "name:en": "Yamanote Line", "name:ja": "山手線", "name:ja_rm": "Yamanote-sen", "operator": "東日本旅客鉄道", "operator:en": "East Japan Railway", "operator:ja": "東日本旅客鉄道", "operator:ja_rm": "Higashi-Nihon Ryokaku Tetsudō", "railway": "rail", "source": "Bing", "usage": "main", "voltage": "1500", "name:ja_kana": "やまのてせん", "name:ru": "Линия JR Яманотэ", "railway:traffic_mode": "passenger" }, "geometry": { "type": "LineString", "coordinates": [ [ 37.573052361708058, 55.767905132667686 ], [ 37.573079361708047, 55.767988732667689 ] ] } },
{ "type": "Feature", "properties": { "name": "目黒", "name:en": "Meguro", "name:ja": "目黒", "name:ja_rm": "Meguro", "name:ja_kana": "めぐろ", "name:ru": "Мэгуро", "public_transport": "stop_position", "train": "yes" }, "geometry": { "type": "Point", "coordinates": [ 139.716054899999989, 35.6327066 ] } },
{ "type": "Feature", "properties": { "bridge": "yes", "electrified": "contact_line", "frequency": "0", "gauge": "1067", "layer": "1", "maxspeed": "90", "name": "山手線", "name:de": "Yamanote-Linie", "name:en": "Yamanote Line", "name:ja": "山手線", "name:ja_rm": "Yamanote-sen", "operator": "東日本旅客鉄道", "operator:en": "East Japan Railway", "operator:ja": "東日本旅客鉄道", "operator:ja_rm": "Higashi-Nihon Ryokaku Tetsudō", "railway": "rail", "source": "Bing", "usage": "main", "voltage": "1500", "name:ja_kana": "やまのてせん", "name:ru": "Линия JR Яманотэ", "railway:traffic_mode": "passenger" }, "geometry": { "type": "LineString", "coordinates": [ [ 37.626879161708054, 55.803887532667687 ], [ 37.627067261708056, 55.803976632667684 ], [ 37.627248961708069, 55.804053932667685 ] ] } },
{ "type": "Feature", "properties": { "electrified": "contact_line", "frequency": "0", "gauge": "1067", "layer": "1", "maxspeed": "90", "name": "山手線", "name:de": "Yamanote-Linie", "name:en": "Yamanote Line", "name:ja": "山手線", "name:ja_rm": "Yamanote-sen", "operator": "東日本旅客鉄道", "operator:en": "East Japan Railway", "operator:ja": "東日本旅客鉄道", "operator:ja_rm": "Higashi-Nihon Ryokaku Tetsudō", "railway": "rail", "source": "Bing", "usage": "main", "voltage": "1500", "name:ja_kana": "やまのてせん", "name:ru": "Линия JR Яманотэ", "railway:traffic_mode": "passenger" }, "geometry": { "type": "LineString", "coordinates": [ [ 37.576781061708068, 55.778562832667689 ], [ 37.576991461708054, 55.779172232667683 ] ] } },
{ "type": "Feature", "properties": { "electrified": "contact_line", "frequency": "0", "gauge": "1067", "layer": "1", "maxspeed": "90", "name": "山手線", "name:de": "Yamanote-Linie", "name:en": "Yamanote Line", "name:es": "Línea Yamanote", "name:ja": "山手線", "name:ja_rm": "Yamanote-sen", "operator": "東日本旅客鉄道", "operator:en": "East Japan Railway", "operator:ja": "東日本旅客鉄道", "operator:ja_rm": "Higashi-Nihon Ryokaku Tetsudō", "railway": "rail", "source": "Bing", "usage": "main", "voltage": "1500", "name:ja_kana": "やまのてせん", "name:ru": "Линия JR Яманотэ", "railway:traffic_mode": "passenger" }, "geometry": { "type": "LineString", "coordinates": [ [ 37.581775661708043, 55.711729332667687 ], [ 37.581588461708044, 55.712117332667688 ], [ 37.58140946170807, 55.712453332667685 ], [ 37.581081261708057, 55.713039332667684 ] ] } },
{ "type": "Feature", "properties": { "railway": "crossing" }, "geometry": { "type": "Point", "coordinates": [ 139.739041500000013, 35.7332898 ] } },
{ "type": "Feature", "properties": { "electrified": "contact_line", "frequency": "0", "gauge": "1067", "layer": "1", "maxspeed": "90", "name": "山手線", "name:de": "Yamanote-Linie", "name:en": "Yamanote Line", "name:ja": "山手線", "name:ja_rm": "Yamanote-sen", "operator": "東日本旅客鉄道", "operator:en": "East Japan Railway", "operator:ja": "東日本旅客鉄道", "operator:ja_rm": "Higashi-Nihon Ryokaku Tetsudō", "railway": "rail", "source": "Bing", "usage": "main", "voltage": "1500", "name:ja_kana": "やまのてせん", "name:ru": "Линия JR Яманотэ", "railway:traffic_mode": "passenger" }, "geometry": { "type": "LineString", "coordinates": [ [ 37.630469861708072, 55.803921532667687 ], [ 37.630806961708068, 55.803777532667688 ], [ 37.631010961708064, 55.803669532667683 ], [ 37.631251561708048, 55.80353453266769 ], [ 37.63149886170806, 55.803383332667686 ], [ 37.631729561708063, 55.803219432667689 ], [ 37.631988961708068, 55.802995332667685 ], [ 37.632327961708064, 55.802712232667687 ] ] } },
{ "type": "Feature", "properties": { "electrified": "contact_line", "frequency": "0", "gauge": "1067", "maxspeed": "90", "name": "山手線", "name:de": "Yamanote-Linie", "name:en": "Yamanote Line", "name:ja": "山手線", "name:ja_rm": "Yamanote-sen", "operator": "東日本旅客鉄道", "operator:en": "East Japan Railway", "operator:ja": "東日本旅客鉄道", "operator:ja_rm": "Higashi-Nihon Ryokaku Tetsudō", "railway": "rail", "source": "Bing", "usage": "main", "voltage": "1500", "name:ja_kana": "やまのてせん", "name:ru": "Линия JR Яманотэ", "railway:traffic_mode": "passenger" }, "geometry": { "type": "LineString", "coordinates": [ [ 37.584018561708071, 55.707639232667688 ], [ 37.583634161708069, 55.708262532667689 ], [ 37.583252061708045, 55.708905732667688 ], [ 37.582985861708046, 55.709361032667687 ], [ 37.582489361708049, 55.710177032667687 ] ] } },
{ "type": "Feature", "properties": { "railway": "platform", "source": "bing", "public_transport": "platform", "area": "yes", "covered": "yes", "level": "0", "ref": "15;16" }, "geometry": { "type": "Polygon", "coordinates": [ [ [ 139.7003028, 35.6886918 ], [ 139.7002403, 35.688681 ], [ 139.7001492, 35.6890762 ], [ 139.6999782, 35.6897812 ], [ 139.6998821, 35.6904589 ], [ 139.6998572, 35.6909095 ], [ 139.6998791, 35.6913675 ], [ 139.699925400000012, 35.6919084 ], [ 139.699974200000014, 35.6919043 ], [ 139.6999516, 35.6913705 ], [ 139.699948799999987, 35.6911968 ], [ 139.6999482, 35.6911337 ], [ 139.699947400000013, 35.6909112 ], [ 139.699977600000011, 35.6904684 ], [ 139.700076599999989, 35.6897969 ], [ 139.70024810000001, 35.6889786 ], [ 139.7003028, 35.6886918 ] ] ] } },
{ "type": "Feature", "properties": { "name": "品川", "name:en": "Shinagawa", "name:ja": "品川", "name:ja_rm": "Shinagawa", "name:ja_kana": "しながわ", "name:ru": "Синагава", "name:ko": "시나가와", "public_transport": "stop_position", "train": "yes", "name:fr": "Shinagawa" }, "geometry": { "type": "Point", "coordinates": [ 139.7385065, 35.6286608 ] } },
{ "type": "Feature", "properties": { "name": "西日暮里", "name:en": "Nishi-Nippori", "name:ja": "西日暮里", "name:ja_rm": "Nishi Nippori", "name:ja_kana": "にしにっぽり", "name:ru": "Ниси-Ниппори", "public_transport": "stop_position", "train": "yes" }, "geometry": { "type": "Point", "coordinates": [ 139.7666829, 35.7322131 ] } },
{ "type": "Feature", "properties": { "bridge": "viaduct", "electrified": "contact_line", "frequency": "0", "gauge": "1067", "layer": "1", "maxspeed": "90", "name": "山手線", "name:de": "Yamanote-Linie", "name:en": "Yamanote Line", "name:es": "Línea Yamanote", "name:ja": "山手線", "name:ja_rm": "Yamanote-sen", "operator": "東日本旅客鉄道", "operator:en": "East Japan Railway", "operator:ja": "東日本旅客鉄道", "operator:ja_rm": "Higashi-Nihon Ryokaku Tetsudō", "railway": "rail", "source": "Bing", "usage": "main", "voltage": "1500" }, "geometry": { "type": "LineString", "coordinates": [ [ 37.64457076170806, 55.758257632667686 ], [ 37.644387861708061, 55.757783932667685 ], [ 37.644154661708065, 55.757265432667687 ], [ 37.64403506170806, 55.756981332667685 ], [ 37.643901061708057, 55.756666432667686 ], [ 37.643748661708067, 55.756317532667687 ], [ 37.643572161708057, 55.755894832667686 ], [ 37.643436561708064, 55.755553232667687 ], [ 37.643288361708052, 55.755186932667684 ], [ 37.64316806170806, 55.75489443266769 ], [ 37.643043361708045, 55.754592132667689 ], [ 37.64296826170807, 55.754410132667687 ], [ 37.642920761708048, 55.754295032667684 ], [ 37.642888361708067, 55.754216532667684 ], [ 37.642821961708059, 55.754055432667684 ], [ 37.642638561708061, 55.753610632667687 ], [ 37.642537161708056, 55.75338103266769 ] ] } },
{ "type": "Feature", "properties": { "bridge": "yes", "electrified": "contact_line", "frequency": "0", "gauge": "1067", "layer": "1", "maxspeed": "90", "name": "山手線", "name:de": "Yamanote-Linie", "name:en": "Yamanote Line", "name:ja": "山手線", "name:ja_rm": "Yamanote-sen", "operator": "東日本旅客鉄道", "operator:en": "East Japan Railway", "operator:ja": "東日本旅客鉄道", "operator:ja_rm": "Higashi-Nihon Ryokaku Tetsudō", "railway": "rail", "source": "Bing", "usage": "main", "voltage": "1500", "name:ja_kana": "やまのてせん", "name:ru": "Линия JR Яманотэ", "railway:traffic_mode": "passenger" }, "geometry": { "type": "LineString", "coordinates": [ [ 37.574869561708063, 55.773064432667688 ], [ 37.574971861708072, 55.773379032667684 ] ] } },
{ "type": "Feature", "properties": { "bridge": "yes", "electrified": "contact_line", "frequency": "0", "gauge": "1067", "layer": "1", "maxspeed": "90", "name": "山手線", "name:de": "Yamanote-Linie", "name:en": "Yamanote Line", "name:ja": "山手線", "name:ja_rm": "Yamanote-sen", "operator": "東日本旅客鉄道", "operator:en": "East Japan Railway", "operator:ja": "東日本旅客鉄道", "operator:ja_rm": "Higashi-Nihon Ryokaku Tetsudō", "railway": "rail", "source": "Bing", "usage": "main", "voltage": "1500", "name:ja_kana": "やまのてせん" }, "geometry": { "type": "LineString", "coordinates": [ [ 37.606135661708045, 55.680689632667686 ], [ 37.606004261708058, 55.680667832667687 ] ] } },
{ "type": "Feature", "properties": { "bridge": "yes", "electrified": "contact_line", "frequency": "0", "gauge": "1067", "layer": "1", "maxspeed": "90", "name": "山手線", "name:de": "Yamanote-Linie", "name:en": "Yamanote Line", "name:ja": "山手線", "name:ja_rm": "Yamanote-sen", "operator": "東日本旅客鉄道", "operator:en": "East Japan Railway", "operator:ja": "東日本旅客鉄道", "operator:ja_rm": "Higashi-Nihon Ryokaku Tetsudō", "railway": "rail", "source": "Bing", "usage": "main", "voltage": "1500", "name:ja_kana": "やまのてせん", "name:ru": "Линия JR Яманотэ", "railway:traffic_mode": "passenger" }, "geometry": { "type": "LineString", "coordinates": [ [ 37.571739961708069, 55.759702232667685 ], [ 37.571781661708066, 55.759987732667689 ], [ 37.571849461708048, 55.760269432667684 ], [ 37.571872661708063, 55.760373232667689 ] ] } },
{ "type": "Feature", "properties": { "name": "五反田", "name:en": "Gotanda", "name:es": "Gotanda", "name:ja": "五反田", "name:ja_rm": "Gotanda", "operator": "東日本旅客鉄道", "railway": "stop", "name:ja_kana": "ごたんだ", "name:ru": "Готанда", "public_transport": "stop_position", "train": "yes", "ref": "2", "wikidata": "Q736018", "wikipedia": "en:Gotanda Station" }, "geometry": { "type": "Point", "coordinates": [ 139.722594500000014, 35.6272673 ] } },
{ "type": "Feature", "properties": { "electrified": "contact_line", "frequency": "0", "gauge": "1067", "layer": "1", "maxspeed": "90", "name": "山手線", "name:de": "Yamanote-Linie", "name:en": "Yamanote Line", "name:ja": "山手線", "name:ja_rm": "Yamanote-sen", "operator": "東日本旅客鉄道", "operator:en": "East Japan Railway", "operator:ja": "東日本旅客鉄道", "operator:ja_rm": "Higashi-Nihon Ryokaku Tetsudō", "railway": "rail", "source": "Bing", "usage": "main", "voltage": "1500", "name:ja_kana": "やまのてせん", "name:ru": "Линия JR Яманотэ", "railway:traffic_mode": "passenger" }, "geometry": { "type": "LineString", "coordinates": [ [ 37.586933361708056, 55.702299232667684 ], [ 37.586906561708055, 55.702345632667686 ], [ 37.586784961708055, 55.702517032667686 ], [ 37.586550661708067, 55.702841732667686 ], [ 37.58642696170805, 55.70302203266769 ], [ 37.586309861708067, 55.703211632667688 ], [ 37.586205161708058, 55.703405332667685 ], [ 37.586121861708058, 55.703584332667688 ], [ 37.586060961708064, 55.703725032667684 ] ] } },
{ "type": "Feature", "properties": { "electrified": "contact_line", "frequency": "0", "gauge": "1067", "layer": "1", "maxspeed": "90", "name": "山手線", "name:de": "Yamanote-Linie", "name:en": "Yamanote Line", "name:ja": "山手線", "name:ja_rm": "Yamanote-sen", "operator": "東日本旅客鉄道", "operator:en": "East Japan Railway", "operator:ja": "東日本旅客鉄道", "operator:ja_rm": "Higashi-Nihon Ryokaku Tetsudō", "railway": "rail", "source": "Bing", "usage": "main", "voltage": "1500", "embankment": "yes" }, "geometry": { "type": "LineString", "coordinates": [ [ 37.646715761708045, 55.76859623266769 ], [ 37.646700261708055, 55.768504332667689 ], [ 37.646648861708066, 55.768169332667689 ] ] } },
{ "type": "Feature", "properties": { "electrified": "contact_line", "frequency": "0", "gauge": "1067", "layer": "1", "maxspeed": "90", "name": "山手線", "name:de": "Yamanote-Linie", "name:en": "Yamanote Line", "name:ja": "山手線", "name:ja_rm": "Yamanote-sen", "operator": "東日本旅客鉄道", "operator:en": "East Japan Railway", "operator:ja": "東日本旅客鉄道", "operator:ja_rm": "Higashi-Nihon Ryokaku Tetsudō", "railway": "rail", "source": "Bing", "usage": "main", "voltage": "1500", "name:ja_kana": "やまのてせん", "name:ru": "Линия JR Яманотэ", "railway:traffic_mode": "passenger" }, "geometry": { "type": "LineString", "coordinates": [ [ 37.572497861708065, 55.763509032667685 ], [ 37.572532361708063, 55.764316632667686 ], [ 37.57260966170805, 55.765089532667687 ], [ 37.572617661708058, 55.765169132667687 ] ] } },
{ "type": "Feature", "properties": { "electrified": "contact_line", "frequency": "0", "gauge": "1067", "layer": "1", "maxspeed": "90", "name": "山手線", "name:de": "Yamanote-Linie", "name:en": "Yamanote Line", "name:ja": "山手線", "name:ja_rm": "Yamanote-sen", "operator": "東日本旅客鉄道", "operator:en": "East Japan Railway", "operator:ja": "東日本旅客鉄道", "operator:ja_rm": "Higashi-Nihon Ryokaku Tetsudō", "railway": "rail", "usage": "main", "voltage": "1500", "name:ja_kana": "やまのてせん", "name:ru": "Линия JR Яманотэ", "railway:traffic_mode": "passenger", "embankment": "yes" }, "geometry": { "type": "LineString", "coordinates": [ [ 37.582489361708049, 55.710177032667687 ], [ 37.582105661708063, 55.71095673266769 ], [ 37.581925361708052, 55.711378832667684 ] ] } },
{ "type": "Feature", "properties": { "electrified": "contact_line", "frequency": "0", "gauge": "1067", "layer": "1", "maxspeed": "90", "name": "山手線", "name:de": "Yamanote-Linie", "name:en": "Yamanote Line", "name:es": "Línea Yamanote", "name:ja": "山手線", "name:ja_rm": "Yamanote-sen", "operator": "東日本旅客鉄道", "operator:en": "East Japan Railway", "operator:ja": "東日本旅客鉄道", "operator:ja_rm": "Higashi-Nihon Ryokaku Tetsudō", "railway": "rail", "source": "Bing", "usage": "main", "voltage": "1500", "name:ja_kana": "やまのてせん", "name:ru": "Линия JR Яманотэ", "railway:traffic_mode": "passenger" }, "geometry": { "type": "LineString", "coordinates": [ [ 37.57568586170806, 55.744043732667684 ], [ 37.575335461708057, 55.745296232667684 ], [ 37.575277761708044, 55.745472532667684 ], [ 37.575219961708065, 55.745655732667686 ], [ 37.575126961708044, 55.745886732667685 ], [ 37.575030261708044, 55.746090932667684 ] ] } },
{ "type": "Feature", "properties": { "bridge": "yes", "electrified": "contact_line", "frequency": "0", "gauge": "1067", "layer": "1", "maxspeed": "90", "name": "山手線 (Yamanote Line)", "name:de": "Yamanote-Linie", "name:en": "Yamanote Line", "name:ja": "山手線", "name:ja_rm": "Yamanote-sen", "operator": "東日本旅客鉄道", "operator:en": "East Japan Railway", "operator:ja": "東日本旅客鉄道", "operator:ja_rm": "Higashi-Nihon Ryokaku Tetsudō", "railway": "rail", "source": "Bing", "usage": "main", "voltage": "1500", "name:ja_kana": "やまのてせん", "name:ru": "Линия JR Яманотэ", "railway:traffic_mode": "passenger" }, "geometry": { "type": "LineString", "coordinates": [ [ 37.572282261708047, 55.761706432667687 ], [ 37.572340961708058, 55.761997732667687 ] ] } },
{ "type": "Feature", "properties": { "electrified": "contact_line", "frequency": "0", "gauge": "1067", "layer": "1", "maxspeed": "90", "name": "山手線", "name:de": "Yamanote-Linie", "name:en": "Yamanote Line", "name:ja": "山手線", "name:ja_rm": "Yamanote-sen", "operator": "東日本旅客鉄道", "operator:en": "East Japan Railway", "operator:ja": "東日本旅客鉄道", "operator:ja_rm": "Higashi-Nihon Ryokaku Tetsudō", "railway": "rail", "source": "Bing", "usage": "main", "voltage": "1500", "name:ja_kana": "やまのてせん", "name:ru": "Линия JR Яманотэ", "railway:traffic_mode": "passenger" }, "geometry": { "type": "LineString", "coordinates": [ [ 37.572633161708048, 55.76532383266769 ], [ 37.57264796170805, 55.765471932667687 ], [ 37.572770161708071, 55.766195232667684 ], [ 37.572863161708064, 55.767016132667685 ], [ 37.572936661708049, 55.76742513266769 ], [ 37.573020961708046, 55.767781632667685 ], [ 37.573052361708058, 55.767905132667686 ] ] } },
{ "type": "Feature", "properties": { "name": "新大久保", "name:en": "Shin-Okubo", "name:ja_rm": "Shin-Ōkubo", "name:ja_kana": "しんおおくぼ", "name:ru": "Син-Окубо", "public_transport": "stop_position", "train": "yes" }, "geometry": { "type": "Point", "coordinates": [ 139.7001876, 35.7013028 ] } },
{ "type": "Feature", "properties": { "bridge": "yes", "electrified": "contact_line", "frequency": "0", "gauge": "1067", "layer": "1", "maxspeed": "90", "name": "山手線", "name:de": "Yamanote-Linie", "name:en": "Yamanote Line", "name:ja": "山手線", "name:ja_rm": "Yamanote-sen", "operator": "東日本旅客鉄道", "operator:en": "East Japan Railway", "operator:ja": "東日本旅客鉄道", "operator:ja_rm": "Higashi-Nihon Ryokaku Tetsudō", "railway": "rail", "source": "Bing", "usage": "main", "voltage": "1500" }, "geometry": { "type": "LineString", "coordinates": [ [ 37.637877961708064, 55.741512632667686 ], [ 37.637750661708061, 55.741190332667685 ] ] } },
{ "type": "Feature", "properties": { "bridge": "yes", "electrified": "contact_line", "frequency": "0", "gauge": "1067", "layer": "1", "maxspeed": "90", "name": "山手線", "name:de": "Yamanote-Linie", "name:en": "Yamanote Line", "name:ja": "山手線", "name:ja_rm": "Yamanote-sen", "operator": "東日本旅客鉄道", "operator:en": "East Japan Railway", "operator:ja": "東日本旅客鉄道", "operator:ja_rm": "Higashi-Nihon Ryokaku Tetsudō", "railway": "rail", "source": "Bing", "usage": "main", "voltage": "1500" }, "geometry": { "type": "LineString", "coordinates": [ [ 37.632634961708057, 55.736029032667687 ], [ 37.632532861708064, 55.735859232667686 ] ] } },
{ "type": "Feature", "properties": { "electrified": "contact_line", "frequency": "0", "gauge": "1067", "layer": "1", "maxspeed": "90", "name": "山手線", "name:de": "Yamanote-Linie", "name:en": "Yamanote Line", "name:es": "Línea Yamanote", "name:ja": "山手線", "name:ja_rm": "Yamanote-sen", "operator": "東日本旅客鉄道", "operator:en": "East Japan Railway", "operator:ja": "東日本旅客鉄道", "operator:ja_rm": "Higashi-Nihon Ryokaku Tetsudō", "railway": "rail", "source": "Bing", "usage": "main", "voltage": "1500", "embankment": "yes", "oneway": "yes" }, "geometry": { "type": "LineString", "coordinates": [ [ 37.630677961708052, 55.72929723266769 ], [ 37.630715861708047, 55.729053732667687 ], [ 37.630834161708044, 55.728222932667684 ] ] } },
{ "type": "Feature", "properties": { "bridge": "yes", "electrified": "contact_line", "frequency": "0", "gauge": "1067", "layer": "1", "maxspeed": "90", "name": "山手線", "name:de": "Yamanote-Linie", "name:en": "Yamanote Line", "name:ja": "山手線", "name:ja_rm": "Yamanote-sen", "operator": "東日本旅客鉄道", "operator:en": "East Japan Railway", "operator:ja": "東日本旅客鉄道", "operator:ja_rm": "Higashi-Nihon Ryokaku Tetsudō", "railway": "rail", "source": "Bing", "usage": "main", "voltage": "1500" }, "geometry": { "type": "LineString", "coordinates": [ [ 37.646749361708068, 55.768795332667686 ], [ 37.646715761708045, 55.76859623266769 ] ] } },
{ "type": "Feature", "properties": { "electrified": "contact_line", "frequency": "0", "gauge": "1067", "maxspeed": "90", "name": "山手線", "name:de": "Yamanote-Linie", "name:en": "Yamanote Line", "name:es": "Línea Yamanote", "name:ja": "山手線", "name:ja_rm": "Yamanote-sen", "operator": "東日本旅客鉄道", "operator:en": "East Japan Railway", "operator:ja": "東日本旅客鉄道", "operator:ja_rm": "Higashi-Nihon Ryokaku Tetsudō", "railway": "rail", "source": "Bing", "usage": "main", "voltage": "1500", "name:ja_kana": "やまのてせん", "name:ru": "Линия JR Яманотэ", "railway:traffic_mode": "passenger" }, "geometry": { "type": "LineString", "coordinates": [ [ 37.582736661708061, 55.793011932667689 ], [ 37.582787361708064, 55.793159732667689 ], [ 37.582862961708067, 55.793351532667685 ], [ 37.582948261708061, 55.793523332667689 ], [ 37.583248261708071, 55.794087432667688 ], [ 37.58377346170807, 55.79507503266769 ], [ 37.584048561708052, 55.795469832667685 ], [ 37.584306161708049, 55.795838832667684 ], [ 37.584438861708044, 55.796038832667683 ] ] } },
{ "type": "Feature", "properties": { "bridge": "yes", "electrified": "contact_line", "frequency": "0", "gauge": "1067", "layer": "1", "maxspeed": "90", "name": "山手線", "name:de": "Yamanote-Linie", "name:en": "Yamanote Line", "name:ja": "山手線", "name:ja_rm": "Yamanote-sen", "operator": "東日本旅客鉄道", "operator:en": "East Japan Railway", "operator:ja": "東日本旅客鉄道", "operator:ja_rm": "Higashi-Nihon Ryokaku Tetsudō", "railway": "rail", "source": "Bing", "usage": "main", "voltage": "1500" }, "geometry": { "type": "LineString", "coordinates": [ [ 37.636428161708047, 55.739461832667686 ], [ 37.636176461708068, 55.73925723266769 ] ] } },
{ "type": "Feature", "properties": { "electrified": "contact_line", "frequency": "0", "gauge": "1067", "maxspeed": "90", "name": "山手線", "name:de": "Yamanote-Linie", "name:en": "Yamanote Line", "name:es": "Línea Yamanote", "name:ja": "山手線", "name:ja_rm": "Yamanote-sen", "operator": "東日本旅客鉄道", "operator:en": "East Japan Railway", "operator:ja": "東日本旅客鉄道", "operator:ja_rm": "Higashi-Nihon Ryokaku Tetsudō", "railway": "rail", "source": "Bing", "usage": "main", "voltage": "1500", "name:ja_kana": "やまのてせん", "name:ru": "Линия JR Яманотэ", "railway:traffic_mode": "passenger" }, "geometry": { "type": "LineString", "coordinates": [ [ 37.59214306170805, 55.69267773266769 ], [ 37.591789961708066, 55.692833732667687 ], [ 37.591437761708058, 55.692990532667686 ], [ 37.591086461708052, 55.693145432667684 ], [ 37.590771461708052, 55.693289532667684 ], [ 37.590499261708068, 55.69343293266769 ], [ 37.590260061708058, 55.693578432667685 ], [ 37.590039061708048, 55.693731232667687 ], [ 37.589811461708059, 55.693912932667686 ], [ 37.589602761708058, 55.694104632667688 ], [ 37.589426261708049, 55.69428293266769 ] ] } },
{ "type": "Feature", "properties": { "name": "代々木", "name:en": "Yoyogi", "name:ja": "代々木", "name:ja_rm": "Yoyogi", "name:ja_kana": "よよぎ", "name:ru": "Ёёги", "public_transport": "stop_position", "train": "yes", "name:fr": "Yoyogi" }, "geometry": { "type": "Point", "coordinates": [ 139.701989, 35.683936 ] } },
{ "type": "Feature", "properties": { "electrified": "contact_line", "frequency": "0", "gauge": "1067", "layer": "-1", "maxspeed": "90", "name": "山手線", "name:de": "Yamanote-Linie", "name:en": "Yamanote Line", "name:ja": "山手線", "name:ja_rm": "Yamanote-sen", "operator": "東日本旅客鉄道", "operator:en": "East Japan Railway", "operator:ja": "東日本旅客鉄道", "operator:ja_rm": "Higashi-Nihon Ryokaku Tetsudō", "railway": "rail", "source": "Bing", "usage": "main", "voltage": "1500", "name:ja_kana": "やまのてせん", "name:ru": "Линия JR Яманотэ", "railway:traffic_mode": "passenger" }, "geometry": { "type": "LineString", "coordinates": [ [ 37.584685761708052, 55.706453632667689 ], [ 37.584018561708071, 55.707639232667688 ] ] } },
{ "type": "Feature", "properties": { "electrified": "contact_line", "frequency": "0", "gauge": "1067", "layer": "1", "maxspeed": "90", "name": "山手線 (Yamanote Line)", "name:de": "Yamanote-Linie", "name:en": "Yamanote Line", "name:es": "Línea Yamanote", "name:ja": "山手線", "name:ja_rm": "Yamanote-sen", "operator": "東日本旅客鉄道", "operator:en": "East Japan Railway", "operator:ja": "東日本旅客鉄道", "operator:ja_rm": "Higashi-Nihon Ryokaku Tetsudō", "railway": "rail", "source": "Bing", "usage": "main", "voltage": "1500" }, "geometry": { "type": "LineString", "coordinates": [ [ 37.628886861708061, 55.716594632667686 ], [ 37.628848761708049, 55.716466732667683 ], [ 37.628734261708054, 55.716127532667684 ], [ 37.628580461708061, 55.715724332667683 ], [ 37.62841036170807, 55.715340832667685 ], [ 37.628200861708059, 55.714926732667685 ], [ 37.627954961708049, 55.714509132667686 ], [ 37.627759261708071, 55.714200532667689 ], [ 37.62753906170807, 55.71389473266769 ], [ 37.627332261708069, 55.713634632667684 ], [ 37.627031361708056, 55.713309132667689 ], [ 37.626455361708061, 55.712813732667684 ] ] } },
{ "type": "Feature", "properties": { "bridge": "yes", "electrified": "contact_line", "frequency": "0", "gauge": "1067", "layer": "1", "maxspeed": "90", "name": "山手線", "name:de": "Yamanote-Linie", "name:en": "Yamanote Line", "name:ja": "山手線", "name:ja_rm": "Yamanote-sen", "operator": "東日本旅客鉄道", "operator:en": "East Japan Railway", "operator:ja": "東日本旅客鉄道", "operator:ja_rm": "Higashi-Nihon Ryokaku Tetsudō", "railway": "rail", "source": "Bing", "usage": "main", "voltage": "1500" }, "geometry": { "type": "LineString", "coordinates": [ [ 37.645987961708052, 55.765639632667686 ], [ 37.645918361708063, 55.765340332667684 ], [ 37.645906561708053, 55.76526123266769 ] ] } },
{ "type": "Feature", "properties": { "bridge": "yes", "electrified": "contact_line", "frequency": "0", "gauge": "1067", "layer": "1", "maxspeed": "90", "name": "山手線 (Yamanote Line)", "name:de": "Yamanote-Linie", "name:en": "Yamanote Line", "name:ja": "山手線", "name:ja_rm": "Yamanote-sen", "operator": "東日本旅客鉄道", "operator:en": "East Japan Railway", "operator:ja": "東日本旅客鉄道", "operator:ja_rm": "Higashi-Nihon Ryokaku Tetsudō", "railway": "rail", "source": "Bing", "usage": "main", "voltage": "1500", "name:ja_kana": "やまのてせん", "name:ru": "Линия JR Яманотэ", "railway:traffic_mode": "passenger" }, "geometry": { "type": "LineString", "coordinates": [ [ 37.572113161708053, 55.761098232667685 ], [ 37.572141361708056, 55.761189932667683 ] ] } },
{ "type": "Feature", "properties": { "bridge": "yes", "electrified": "contact_line", "frequency": "0", "gauge": "1067", "layer": "1", "maxspeed": "90", "name": "山手線", "name:de": "Yamanote-Linie", "name:en": "Yamanote Line", "name:ja": "山手線", "name:ja_rm": "Yamanote-sen", "operator": "東日本旅客鉄道", "operator:en": "East Japan Railway", "operator:ja": "東日本旅客鉄道", "operator:ja_rm": "Higashi-Nihon Ryokaku Tetsudō", "railway": "rail", "source": "Bing", "usage": "main", "voltage": "1500" }, "geometry": { "type": "LineString", "coordinates": [ [ 37.641973161708059, 55.752041432667689 ], [ 37.641856461708052, 55.751760732667684 ] ] } },
{ "type": "Feature", "properties": { "name": "新宿", "name:en": "Shinjuku", "name:es": "Shinjuku", "name:ja": "新宿", "name:ja_rm": "Shinjuku", "operator": "東日本旅客鉄道", "railway": "stop", "name:ko": "신주쿠", "public_transport": "stop_position", "train": "yes", "local_ref": "15" }, "geometry": { "type": "Point", "coordinates": [ 139.7002594, 35.6889815 ] } },
{ "type": "Feature", "properties": { "electrified": "contact_line", "frequency": "0", "gauge": "1067", "layer": "1", "maxspeed": "90", "name": "山手線", "name:de": "Yamanote-Linie", "name:en": "Yamanote Line", "name:es": "Línea Yamanote", "name:ja": "山手線", "name:ja_rm": "Yamanote-sen", "operator": "東日本旅客鉄道", "operator:en": "East Japan Railway", "operator:ja": "東日本旅客鉄道", "operator:ja_rm": "Higashi-Nihon Ryokaku Tetsudō", "railway": "rail", "source": "Bing", "usage": "main", "voltage": "1500", "embankment": "yes" }, "geometry": { "type": "LineString", "coordinates": [ [ 37.646246261708065, 55.766443432667685 ], [ 37.646181861708051, 55.766251732667683 ], [ 37.646052061708055, 55.765860432667687 ], [ 37.646007361708065, 55.765706532667686 ], [ 37.645987961708052, 55.765639632667686 ] ] } },
{ "type": "Feature", "properties": { "bridge": "yes", "electrified": "contact_line", "frequency": "0", "gauge": "1067", "layer": "1", "maxspeed": "90", "name": "山手線", "name:de": "Yamanote-Linie", "name:en": "Yamanote Line", "name:es": "Línea Yamanote", "name:ja": "山手線", "name:ja_rm": "Yamanote-sen", "operator": "東日本旅客鉄道", "operator:en": "East Japan Railway", "operator:ja": "東日本旅客鉄道", "operator:ja_rm": "Higashi-Nihon Ryokaku Tetsudō", "railway": "rail", "source": "Bing", "usage": "main", "voltage": "1500" }, "geometry": { "type": "LineString", "coordinates": [ [ 37.647427561708049, 55.775645432667687 ], [ 37.647352361708052, 55.775488232667684 ], [ 37.647236161708044, 55.775229832667684 ] ] } },
{ "type": "Feature", "properties": { "electrified": "contact_line", "frequency": "0", "gauge": "1067", "layer": "1", "maxspeed": "90", "name": "山手線", "name:de": "Yamanote-Linie", "name:en": "Yamanote Line", "name:ja": "山手線", "name:ja_rm": "Yamanote-sen", "operator": "東日本旅客鉄道", "operator:en": "East Japan Railway", "operator:ja": "東日本旅客鉄道", "operator:ja_rm": "Higashi-Nihon Ryokaku Tetsudō", "railway": "rail", "source": "Bing", "usage": "main", "voltage": "1500", "name:ja_kana": "やまのてせん", "name:ru": "Линия JR Яманотэ", "railway:traffic_mode": "passenger", "embankment": "yes" }, "geometry": { "type": "LineString", "coordinates": [ [ 37.596326361708044, 55.689556632667689 ], [ 37.595871261708062, 55.69015503266769 ], [ 37.595868361708064, 55.690158932667686 ], [ 37.595837661708067, 55.690195832667683 ] ] } },
{ "type": "Feature", "properties": { "bridge": "yes", "electrified": "contact_line", "frequency": "0", "gauge": "1067", "layer": "1", "maxspeed": "90", "name": "山手線", "name:de": "Yamanote-Linie", "name:en": "Yamanote Line", "name:ja": "山手線", "name:ja_rm": "Yamanote-sen", "operator": "東日本旅客鉄道", "operator:en": "East Japan Railway", "operator:ja": "東日本旅客鉄道", "operator:ja_rm": "Higashi-Nihon Ryokaku Tetsudō", "railway": "rail", "source": "Bing", "usage": "main", "voltage": "1500", "name:ja_kana": "やまのてせん", "name:ru": "Линия JR Яманотэ", "railway:traffic_mode": "passenger", "alt_name": "青山街道架道橋" }, "geometry": { "type": "LineString", "coordinates": [ [ 37.575030261708044, 55.746090932667684 ], [ 37.574915761708048, 55.746332732667689 ] ] } },
{ "type": "Feature", "properties": { "electrified": "contact_line", "frequency": "0", "gauge": "1067", "layer": "1", "maxspeed": "90", "name": "山手線", "name:de": "Yamanote-Linie", "name:en": "Yamanote Line", "name:es": "Línea Yamanote", "name:ja": "山手線", "name:ja_rm": "Yamanote-sen", "operator": "東日本旅客鉄道", "operator:en": "East Japan Railway", "operator:ja": "東日本旅客鉄道", "operator:ja_rm": "Higashi-Nihon Ryokaku Tetsudō", "railway": "rail", "source": "Bing", "usage": "main", "voltage": "1500" }, "geometry": { "type": "LineString", "coordinates": [ [ 37.630998261708051, 55.727121432667687 ], [ 37.63101996170807, 55.726871532667687 ], [ 37.631041561708066, 55.726421032667687 ], [ 37.631042861708046, 55.726071332667686 ], [ 37.63103576170807, 55.725726832667689 ], [ 37.630982161708069, 55.725088232667687 ], [ 37.630917761708055, 55.724637032667687 ], [ 37.630825561708043, 55.72413753266769 ], [ 37.630704561708065, 55.723617932667686 ], [ 37.630687361708063, 55.723549632667684 ] ] } },
{ "type": "Feature", "properties": { "name": "大塚", "name:en": "Otsuka", "name:ja": "大塚", "name:ja_rm": "Ōtsuka", "name:ru": "Оцука", "public_transport": "stop_position", "train": "yes" }, "geometry": { "type": "Point", "coordinates": [ 139.7283573, 35.7317809 ] } },
{ "type": "Feature", "properties": { "bridge": "yes", "electrified": "contact_line", "frequency": "0", "gauge": "1067", "layer": "2", "maxspeed": "90", "name": "山手線", "name:de": "Yamanote-Linie", "name:en": "Yamanote Line", "name:es": "Línea Yamanote", "name:ja": "山手線", "name:ja_rm": "Yamanote-sen", "operator": "東日本旅客鉄道", "operator:en": "East Japan Railway", "operator:ja": "東日本旅客鉄道", "operator:ja_rm": "Higashi-Nihon Ryokaku Tetsudō", "railway": "rail", "source": "Bing", "usage": "main", "voltage": "1500", "name:ja_kana": "やまのてせん", "name:ru": "Линия JR Яманотэ", "railway:traffic_mode": "passenger" }, "geometry": { "type": "LineString", "coordinates": [ [ 37.601037661708069, 55.795500832667685 ], [ 37.601278561708064, 55.795438532667688 ], [ 37.60200486170806, 55.79521063266769 ] ] } },
{ "type": "Feature", "properties": { "layer": "-4", "railway": "platform", "tunnel": "yes", "public_transport": "platform", "level": "-4", "ref": "2", "lit": "yes", "subway": "yes", "surface": "paved" }, "geometry": { "type": "LineString", "coordinates": [ [ 37.58838786170805, 55.696971532667689 ], [ 37.58838626170806, 55.696957232667685 ], [ 37.588408561708071, 55.696873332667685 ], [ 37.588464861708054, 55.696661932667688 ], [ 37.588490561708063, 55.696565532667684 ], [ 37.588502061708063, 55.696553132667688 ] ] } },
{ "type": "Feature", "properties": { "electrified": "contact_line", "frequency": "0", "gauge": "1067", "maxspeed": "90", "name": "山手線", "name:de": "Yamanote-Linie", "name:en": "Yamanote Line", "name:es": "Línea Yamanote", "name:ja": "山手線", "name:ja_rm": "Yamanote-sen", "operator": "東日本旅客鉄道", "operator:en": "East Japan Railway", "operator:ja": "東日本旅客鉄道", "operator:ja_rm": "Higashi-Nihon Ryokaku Tetsudō", "railway": "rail", "source": "Bing", "usage": "main", "voltage": "1500", "name:ja_kana": "やまのてせん", "name:ru": "Линия JR Яманотэ", "railway:traffic_mode": "passenger" }, "geometry": { "type": "LineString", "coordinates": [ [ 37.606004261708058, 55.680667832667687 ], [ 37.60578066170806, 55.680641832667689 ], [ 37.605619861708057, 55.680629532667687 ], [ 37.605406761708061, 55.680619632667685 ], [ 37.605214061708047, 55.680617432667688 ], [ 37.605010661708071, 55.68062613266769 ], [ 37.604716761708069, 55.68065163266769 ], [ 37.604408461708069, 55.680698232667687 ], [ 37.604148661708059, 55.680754332667689 ], [ 37.603841261708062, 55.68084253266769 ], [ 37.603589061708057, 55.680936532667687 ], [ 37.603336161708064, 55.68104623266769 ], [ 37.603096661708044, 55.681172432667687 ], [ 37.602901561708059, 55.681290332667686 ], [ 37.602668961708055, 55.681454132667689 ], [ 37.602457961708048, 55.681628232667684 ], [ 37.602276761708062, 55.681804932667688 ], [ 37.602028661708069, 55.682088332667689 ], [ 37.601879861708063, 55.682275332667686 ], [ 37.601811561708054, 55.68235773266769 ] ] } },
{ "type": "Feature", "properties": { "bridge": "yes", "electrified": "contact_line", "frequency": "0", "gauge": "1067", "layer": "1", "maxspeed": "90", "name": "山手線", "name:de": "Yamanote-Linie", "name:en": "Yamanote Line", "name:ja": "山手線", "name:ja_rm": "Yamanote-sen", "operator": "東日本旅客鉄道", "operator:en": "East Japan Railway", "operator:ja": "東日本旅客鉄道", "operator:ja_rm": "Higashi-Nihon Ryokaku Tetsudō", "railway": "rail", "source": "Bing", "usage": "main", "voltage": "1500" }, "geometry": { "type": "LineString", "coordinates": [ [ 37.642537161708056, 55.75338103266769 ], [ 37.642469361708045, 55.753227532667687 ] ] } },
{ "type": "Feature", "properties": { "electrified": "contact_line", "frequency": "0", "gauge": "1067", "layer": "1", "maxspeed": "90", "name": "山手線", "name:de": "Yamanote-Linie", "name:en": "Yamanote Line", "name:ja": "山手線", "name:ja_rm": "Yamanote-sen", "operator": "東日本旅客鉄道", "operator:en": "East Japan Railway", "operator:ja": "東日本旅客鉄道", "operator:ja_rm": "Higashi-Nihon Ryokaku Tetsudō", "railway": "rail", "source": "Bing", "usage": "main", "voltage": "1500", "name:ja_kana": "やまのてせん", "name:ru": "Линия JR Яманотэ", "railway:traffic_mode": "passenger" }, "geometry": { "type": "LineString", "coordinates": [ [ 37.582063961708066, 55.791228932667686 ], [ 37.582217861708052, 55.791525232667688 ], [ 37.582446561708061, 55.792069032667683 ], [ 37.582496461708054, 55.792187632667684 ] ] } },
{ "type": "Feature", "properties": { "name": "鶯谷", "name:en": "Uguisudani", "name:ja": "鶯谷", "name:ja_rm": "Uguisudani", "name:ja_kana": "うぐいすだに", "name:ru": "Угуисудани", "public_transport": "stop_position", "train": "yes", "name:fr": "Uguisudani" }, "geometry": { "type": "Point", "coordinates": [ 139.7786314, 35.7210215 ] } },
{ "type": "Feature", "properties": { "bridge": "viaduct", "electrified": "contact_line", "frequency": "0", "gauge": "1067", "layer": "1", "maxspeed": "90", "name": "山手線", "name:de": "Yamanote-Linie", "name:en": "Yamanote Line", "name:es": "Línea Yamanote", "name:ja": "山手線", "name:ja_rm": "Yamanote-sen", "operator": "東日本旅客鉄道", "operator:en": "East Japan Railway", "operator:ja": "東日本旅客鉄道", "operator:ja_rm": "Higashi-Nihon Ryokaku Tetsudō", "railway": "rail", "source": "Bing", "usage": "main", "voltage": "1500", "name:ko": "야마노테선" }, "geometry": { "type": "LineString", "coordinates": [ [ 37.647236161708044, 55.775229832667684 ], [ 37.647149761708057, 55.774901132667686 ], [ 37.647128461708071, 55.774770632667689 ], [ 37.64710376170806, 55.774514932667685 ], [ 37.647114961708048, 55.77421313266769 ], [ 37.647215761708061, 55.773607432667688 ], [ 37.647327261708064, 55.773010632667685 ], [ 37.647354461708069, 55.772775732667689 ], [ 37.647350561708045, 55.772473032667683 ], [ 37.647328361708055, 55.772222232667687 ], [ 37.647280161708046, 55.771915832667688 ], [ 37.647207761708053, 55.771470232667689 ], [ 37.647137061708044, 55.771071432667689 ], [ 37.647072461708071, 55.770736932667688 ], [ 37.646952761708071, 55.770034532667687 ], [ 37.64692136170806, 55.769836132667685 ] ] } },
{ "type": "Feature", "properties": { "electrified": "contact_line", "frequency": "0", "gauge": "1067", "layer": "1", "maxspeed": "90", "name": "山手線", "name:de": "Yamanote-Linie", "name:en": "Yamanote Line", "name:ja": "山手線", "name:ja_rm": "Yamanote-sen", "operator": "東日本旅客鉄道", "operator:en": "East Japan Railway", "operator:ja": "東日本旅客鉄道", "operator:ja_rm": "Higashi-Nihon Ryokaku Tetsudō", "railway": "rail", "source": "Bing", "usage": "main", "voltage": "1500", "name:ja_kana": "やまのてせん", "name:ru": "Линия JR Яманотэ", "railway:traffic_mode": "passenger" }, "geometry": { "type": "LineString", "coordinates": [ [ 37.627248961708069, 55.804053932667685 ], [ 37.627331361708066, 55.804084332667685 ], [ 37.627495461708044, 55.804134232667685 ], [ 37.627708361708052, 55.804193232667686 ], [ 37.628043261708065, 55.804261132667683 ], [ 37.628223361708059, 55.804284232667683 ], [ 37.628471761708063, 55.804305832667687 ], [ 37.628732261708059, 55.80431213266769 ], [ 37.62897736170806, 55.804302232667688 ], [ 37.629270061708048, 55.80426533266769 ], [ 37.629538461708059, 55.80421673266769 ], [ 37.629833361708059, 55.804143832667684 ], [ 37.63011166170805, 55.804053832667684 ] ] } },
{ "type": "Feature", "properties": { "electrified": "contact_line", "frequency": "0", "gauge": "1067", "maxspeed": "90", "name": "山手線", "name:de": "Yamanote-Linie", "name:en": "Yamanote Line", "name:es": "Línea Yamanote", "name:ja": "山手線", "name:ja_rm": "Yamanote-sen", "operator": "東日本旅客鉄道", "operator:en": "East Japan Railway", "operator:ja": "東日本旅客鉄道", "operator:ja_rm": "Higashi-Nihon Ryokaku Tetsudō", "railway": "rail", "source": "Bing", "usage": "main", "voltage": "1500", "name:ja_kana": "やまのてせん", "name:ru": "Линия JR Яманотэ", "railway:traffic_mode": "passenger" }, "geometry": { "type": "LineString", "coordinates": [ [ 37.573926161708052, 55.727332632667689 ], [ 37.574172361708044, 55.729108832667684 ], [ 37.574246361708056, 55.729641432667684 ], [ 37.574290861708057, 55.729962532667685 ], [ 37.574339261708054, 55.730310732667689 ] ] } },
{ "type": "Feature", "properties": { "bridge": "yes", "electrified": "contact_line", "frequency": "0", "gauge": "1067", "layer": "1", "maxspeed": "90", "name": "山手線", "name:de": "Yamanote-Linie", "name:en": "Yamanote Line", "name:ja": "山手線", "name:ja_rm": "Yamanote-sen", "operator": "東日本旅客鉄道", "operator:en": "East Japan Railway", "operator:ja": "東日本旅客鉄道", "operator:ja_rm": "Higashi-Nihon Ryokaku Tetsudō", "railway": "rail", "usage": "main", "voltage": "1500", "name:ja_kana": "やまのてせん", "name:ru": "Линия JR Яманотэ", "railway:traffic_mode": "passenger" }, "geometry": { "type": "LineString", "coordinates": [ [ 37.581925361708052, 55.711378832667684 ], [ 37.581775661708043, 55.711729332667687 ] ] } },
{ "type": "Feature", "properties": { "name": "大崎", "name:en": "Osaki", "name:ja": "大崎", "name:ja_rm": "Ōsaki", "operator": "東日本旅客鉃道", "name:ja_kana": "おおさき", "name:ru": "Осаки", "public_transport": "stop_position" }, "geometry": { "type": "Point", "coordinates": [ 139.728662, 35.6194761 ] } },
{ "type": "Feature", "properties": { "bridge": "viaduct", "electrified": "contact_line", "frequency": "0", "gauge": "1067", "layer": "1", "maxspeed": "90", "name": "山手線", "name:de": "Yamanote-Linie", "name:en": "Yamanote Line", "name:ja": "山手線", "name:ja_rm": "Yamanote-sen", "operator": "東日本旅客鉄道", "operator:en": "East Japan Railway", "operator:ja": "東日本旅客鉄道", "operator:ja_rm": "Higashi-Nihon Ryokaku Tetsudō", "railway": "rail", "source": "Bing", "usage": "main", "voltage": "1500" }, "geometry": { "type": "LineString", "coordinates": [ [ 37.63444086170805, 55.737932032667686 ], [ 37.633977061708045, 55.737566432667684 ] ] } },
{ "type": "Feature", "properties": { "bridge": "yes", "electrified": "contact_line", "frequency": "0", "gauge": "1067", "layer": "1", "maxspeed": "90", "name": "山手線 (Yamanote Line)", "name:de": "Yamanote-Linie", "name:en": "Yamanote Line", "name:ja": "山手線", "name:ja_rm": "Yamanote-sen", "operator": "東日本旅客鉄道", "operator:en": "East Japan Railway", "operator:ja": "東日本旅客鉄道", "operator:ja_rm": "Higashi-Nihon Ryokaku Tetsudō", "railway": "rail", "source": "Bing", "usage": "main", "voltage": "1500", "name:ja_kana": "やまのてせん", "name:ru": "Линия JR Яманотэ", "railway:traffic_mode": "passenger" }, "geometry": { "type": "LineString", "coordinates": [ [ 37.572497261708044, 55.763437632667689 ], [ 37.572497861708065, 55.763509032667685 ] ] } },
{ "type": "Feature", "properties": { "bridge": "yes", "electrified": "contact_line", "frequency": "0", "gauge": "1067", "layer": "1", "maxspeed": "90", "name": "山手線", "name:de": "Yamanote-Linie", "name:en": "Yamanote Line", "name:es": "JR Yamanote", "name:ja": "山手線", "name:ja_rm": "Yamanote-sen", "operator": "東日本旅客鉄道", "operator:en": "East Japan Railway", "operator:ja": "東日本旅客鉄道", "operator:ja_rm": "Higashi-Nihon Ryokaku Tetsudō", "railway": "rail", "source": "Bing", "usage": "main", "voltage": "1500" }, "geometry": { "type": "LineString", "coordinates": [ [ 37.634909161708045, 55.738292732667688 ], [ 37.634638161708047, 55.738084532667685 ], [ 37.63444086170805, 55.737932032667686 ] ] } },
{ "type": "Feature", "properties": { "electrified": "contact_line", "frequency": "0", "gauge": "1067", "layer": "1", "maxspeed": "90", "name": "山手線", "name:de": "Yamanote-Linie", "name:en": "Yamanote Line", "name:es": "Línea Yamanote", "name:ja": "山手線", "name:ja_rm": "Yamanote-sen", "operator": "東日本旅客鉄道", "operator:en": "East Japan Railway", "operator:ja": "東日本旅客鉄道", "operator:ja_rm": "Higashi-Nihon Ryokaku Tetsudō", "railway": "rail", "source": "Bing", "usage": "main", "voltage": "1500", "name:ja_kana": "やまのてせん", "name:ru": "Линия JR Яманотэ", "railway:traffic_mode": "passenger" }, "geometry": { "type": "LineString", "coordinates": [ [ 37.580164061708054, 55.714637932667685 ], [ 37.580017361708066, 55.714856932667686 ], [ 37.579645861708066, 55.715301532667688 ] ] } },
{ "type": "Feature", "properties": { "electrified": "contact_line", "frequency": "0", "gauge": "1067", "maxspeed": "90", "name": "山手線", "name:de": "Yamanote-Linie", "name:en": "Yamanote Line", "name:es": "Línea Yamanote", "name:ja": "山手線", "name:ja_rm": "Yamanote-sen", "operator": "東日本旅客鉄道", "operator:en": "East Japan Railway", "operator:ja": "東日本旅客鉄道", "operator:ja_rm": "Higashi-Nihon Ryokaku Tetsudō", "railway": "rail", "source": "Bing", "usage": "main", "voltage": "1500" }, "geometry": { "type": "LineString", "coordinates": [ [ 37.618396261708064, 55.708641332667689 ], [ 37.618150861708052, 55.708506932667689 ], [ 37.617475161708064, 55.708128932667684 ], [ 37.616979861708053, 55.707784632667689 ], [ 37.616751661708044, 55.707586232667687 ], [ 37.61656676170805, 55.707412532667689 ], [ 37.615933461708046, 55.70671883266769 ], [ 37.615649761708063, 55.706366032667688 ], [ 37.615298061708053, 55.705871532667686 ], [ 37.615014561708058, 55.705456732667685 ], [ 37.61483596170806, 55.705187132667689 ], [ 37.614445861708056, 55.70462543266769 ], [ 37.614043061708067, 55.704022032667687 ], [ 37.613956261708047, 55.703872432667687 ], [ 37.613823161708048, 55.703612332667689 ], [ 37.613423961708044, 55.70271803266769 ], [ 37.613387661708067, 55.702649232667689 ] ] } },
{ "type": "Feature", "properties": { "bridge": "yes", "electrified": "contact_line", "frequency": "0", "gauge": "1067", "layer": "1", "maxspeed": "90", "name": "山手線", "name:de": "Yamanote-Linie", "name:en": "Yamanote Line", "name:ja": "山手線", "name:ja_rm": "Yamanote-sen", "operator": "東日本旅客鉄道", "operator:en": "East Japan Railway", "operator:ja": "東日本旅客鉄道", "operator:ja_rm": "Higashi-Nihon Ryokaku Tetsudō", "railway": "rail", "source": "Bing", "usage": "main", "voltage": "1500" }, "geometry": { "type": "LineString", "coordinates": [ [ 37.630834161708044, 55.728222932667684 ], [ 37.630873561708064, 55.728018832667686 ], [ 37.630899861708066, 55.727840032667686 ] ] } },
{ "type": "Feature", "properties": { "name": "第二中里踏切", "railway": "level_crossing", "source": "Bing" }, "geometry": { "type": "Point", "coordinates": [ 139.7525748, 35.7391261 ] } },
{ "type": "Feature", "properties": { "electrified": "contact_line", "frequency": "0", "gauge": "1067", "layer": "1", "maxspeed": "90", "name": "山手線", "name:de": "Yamanote-Linie", "name:en": "Yamanote Line", "name:ja": "山手線", "name:ja_rm": "Yamanote-sen", "operator": "東日本旅客鉄道", "operator:en": "East Japan Railway", "operator:ja": "東日本旅客鉄道", "operator:ja_rm": "Higashi-Nihon Ryokaku Tetsudō", "railway": "rail", "source": "Bing", "usage": "main", "voltage": "1500", "embankment": "yes" }, "geometry": { "type": "LineString", "coordinates": [ [ 37.63106146170805, 55.733258832667687 ], [ 37.630874061708063, 55.732919932667684 ], [ 37.630815961708045, 55.732809332667685 ], [ 37.630747961708046, 55.732675232667688 ], [ 37.630689761708062, 55.732544532667688 ], [ 37.630653261708069, 55.732443432667687 ], [ 37.630618861708065, 55.732349532667683 ], [ 37.630594561708058, 55.732278132667687 ], [ 37.630542461708053, 55.732102732667684 ] ] } },
{ "type": "Feature", "properties": { "bridge": "yes", "electrified": "contact_line", "frequency": "0", "gauge": "1067", "layer": "1", "maxspeed": "90", "name": "山手線", "name:de": "Yamanote-Linie", "name:en": "Yamanote Line", "name:ja": "山手線", "name:ja_rm": "Yamanote-sen", "operator": "東日本旅客鉄道", "operator:en": "East Japan Railway", "operator:ja": "東日本旅客鉄道", "operator:ja_rm": "Higashi-Nihon Ryokaku Tetsudō", "railway": "rail", "source": "Bing", "usage": "main", "voltage": "1500", "name:ja_kana": "やまのてせん", "name:ru": "Линия JR Яманотэ", "railway:traffic_mode": "passenger" }, "geometry": { "type": "LineString", "coordinates": [ [ 37.597550661708063, 55.687935332667685 ], [ 37.597304261708054, 55.688283432667689 ] ] } },
{ "type": "Feature", "properties": { "name": "浜松町", "name:en": "Hamamatsucho", "name:ja": "浜松町", "name:ja_rm": "Hamamatsuchō", "name:ja_kana": "はままつちょう", "name:ru": "Хамамацутё", "public_transport": "stop_position", "train": "yes", "name:fr": "Hamamatsuchō" }, "geometry": { "type": "Point", "coordinates": [ 139.757079299999987, 35.6551093 ] } },
{ "type": "Feature", "properties": { "bridge": "yes", "electrified": "contact_line", "frequency": "0", "gauge": "1067", "layer": "1", "maxspeed": "90", "name": "山手線", "name:de": "Yamanote-Linie", "name:en": "Yamanote Line", "name:ja": "山手線", "name:ja_rm": "Yamanote-sen", "operator": "東日本旅客鉄道", "operator:en": "East Japan Railway", "operator:ja": "東日本旅客鉄道", "operator:ja_rm": "Higashi-Nihon Ryokaku Tetsudō", "railway": "rail", "source": "Bing", "usage": "main", "voltage": "1500", "name:ja_kana": "やまのてせん", "name:ru": "Линия JR Яманотэ", "railway:traffic_mode": "passenger" }, "geometry": { "type": "LineString", "coordinates": [ [ 37.572195061708051, 55.757144532667688 ], [ 37.572077261708053, 55.757604932667689 ] ] } },
{ "type": "Feature", "properties": { "electrified": "contact_line", "frequency": "0", "gauge": "1067", "maxspeed": "90", "name": "山手線", "name:de": "Yamanote-Linie", "name:en": "Yamanote Line", "name:es": "Línea Yamanote", "name:ja": "山手線", "name:ja_rm": "Yamanote-sen", "operator": "東日本旅客鉄道", "operator:en": "East Japan Railway", "operator:ja": "東日本旅客鉄道", "operator:ja_rm": "Higashi-Nihon Ryokaku Tetsudō", "railway": "rail", "source": "Bing", "usage": "main", "voltage": "1500", "name:ja_kana": "やまのてせん", "name:ru": "Линия JR Яманотэ", "railway:traffic_mode": "passenger" }, "geometry": { "type": "LineString", "coordinates": [ [ 37.57378736170805, 55.725952032667685 ], [ 37.573800661708056, 55.726135232667687 ], [ 37.573886161708067, 55.727014332667686 ], [ 37.573889761708053, 55.727057632667687 ] ] } },
{ "type": "Feature", "properties": { "electrified": "contact_line", "frequency": "0", "gauge": "1067", "layer": "-1", "maxspeed": "90", "name": "山手線", "name:de": "Yamanote-Linie", "name:en": "Yamanote Line", "name:es": "Línea Yamanote", "name:ja": "山手線", "name:ja_rm": "Yamanote-sen", "operator": "東日本旅客鉄道", "operator:en": "East Japan Railway", "operator:ja": "東日本旅客鉄道", "operator:ja_rm": "Higashi-Nihon Ryokaku Tetsudō", "railway": "rail", "source": "Bing", "usage": "main", "voltage": "1500", "name:ja_kana": "やまのてせん", "name:ru": "Линия JR Яманотэ", "railway:traffic_mode": "passenger" }, "geometry": { "type": "LineString", "coordinates": [ [ 37.58814736170806, 55.697657332667688 ], [ 37.587916661708057, 55.698488932667686 ], [ 37.587824461708045, 55.698857632667689 ], [ 37.587719461708055, 55.69924443266769 ], [ 37.587607561708047, 55.699661432667689 ], [ 37.587497861708052, 55.700060132667687 ], [ 37.587391761708069, 55.700486832667686 ], [ 37.587357861708064, 55.70069153266769 ], [ 37.587334561708055, 55.700884932667684 ], [ 37.587300761708072, 55.701193932667685 ], [ 37.587268061708052, 55.701433732667688 ], [ 37.587213261708065, 55.701662232667687 ] ] } },
{ "type": "Feature", "properties": { "name": "上野", "name:en": "Ueno", "name:ja": "上野", "name:ja_rm": "Ueno", "name:ja_kana": "うえのおんしこうえん", "name:ru": "Уэно", "name:ko": "우에노", "public_transport": "stop_position", "train": "yes", "name:fr": "Ueno" }, "geometry": { "type": "Point", "coordinates": [ 139.7761501, 35.7135677 ] } },
{ "type": "Feature", "properties": { "electrified": "contact_line", "frequency": "0", "gauge": "1067", "layer": "1", "maxspeed": "90", "name": "山手線", "name:de": "Yamanote-Linie", "name:en": "Yamanote Line", "name:es": "Línea Yamanote", "name:ja": "山手線", "name:ja_rm": "Yamanote-sen", "operator": "東日本旅客鉄道", "operator:en": "East Japan Railway", "operator:ja": "東日本旅客鉄道", "operator:ja_rm": "Higashi-Nihon Ryokaku Tetsudō", "railway": "rail", "source": "Bing", "usage": "main", "voltage": "1500" }, "geometry": { "type": "LineString", "coordinates": [ [ 37.630670461708071, 55.723482432667687 ], [ 37.630285061708044, 55.72189633266769 ], [ 37.63004716170807, 55.720925532667685 ], [ 37.629923261708065, 55.720464332667689 ] ] } },
{ "type": "Feature", "properties": { "bridge": "yes", "electrified": "contact_line", "frequency": "0", "gauge": "1067", "layer": "1", "maxspeed": "90", "name": "山手線", "name:de": "Yamanote-Linie", "name:en": "Yamanote Line", "name:ja": "山手線", "name:ja_rm": "Yamanote-sen", "operator": "東日本旅客鉄道", "operator:en": "East Japan Railway", "operator:ja": "東日本旅客鉄道", "operator:ja_rm": "Higashi-Nihon Ryokaku Tetsudō", "railway": "rail", "source": "Bing", "usage": "main", "voltage": "1500", "name:ja_kana": "やまのてせん", "name:ru": "Линия JR Яманотэ", "railway:traffic_mode": "passenger" }, "geometry": { "type": "LineString", "coordinates": [ [ 37.586978861708054, 55.702220232667685 ], [ 37.586933361708056, 55.702299232667684 ] ] } },
{ "type": "Feature", "properties": { "bridge": "yes", "electrified": "contact_line", "frequency": "0", "gauge": "1067", "layer": "1", "maxspeed": "90", "name": "山手線", "name:de": "Yamanote-Linie", "name:en": "Yamanote Line", "name:ja": "山手線", "name:ja_rm": "Yamanote-sen", "operator": "東日本旅客鉄道", "operator:en": "East Japan Railway", "operator:ja": "東日本旅客鉄道", "operator:ja_rm": "Higashi-Nihon Ryokaku Tetsudō", "railway": "rail", "source": "Bing", "usage": "main", "voltage": "1500" }, "geometry": { "type": "LineString", "coordinates": [ [ 37.642269061708056, 55.752746632667687 ], [ 37.642205461708052, 55.752595832667687 ] ] } },
{ "type": "Feature", "properties": { "railway": "crossing" }, "geometry": { "type": "Point", "coordinates": [ 139.7386985, 35.7331224 ] } },
{ "type": "Feature", "properties": { "bridge": "yes", "electrified": "contact_line", "frequency": "0", "gauge": "1067", "layer": "1", "maxspeed": "90", "name": "山手線", "name:de": "Yamanote-Linie", "name:en": "Yamanote Line", "name:ja": "山手線", "name:ja_rm": "Yamanote-sen", "operator": "東日本旅客鉄道", "operator:en": "East Japan Railway", "operator:ja": "東日本旅客鉄道", "operator:ja_rm": "Higashi-Nihon Ryokaku Tetsudō", "railway": "rail", "source": "Bing", "usage": "main", "voltage": "1500", "name:ja_kana": "やまのてせん", "name:ru": "Линия JR Яманотэ", "railway:traffic_mode": "passenger" }, "geometry": { "type": "LineString", "coordinates": [ [ 37.577186961708044, 55.779755232667689 ], [ 37.577262661708069, 55.779993532667689 ] ] } },
{ "type": "Feature", "properties": { "bridge": "yes", "electrified": "contact_line", "frequency": "0", "gauge": "1067", "layer": "1", "maxspeed": "90", "name": "山手線", "name:de": "Yamanote-Linie", "name:en": "Yamanote Line", "name:ja": "山手線", "name:ja_rm": "Yamanote-sen", "operator": "東日本旅客鉄道", "operator:en": "East Japan Railway", "operator:ja": "東日本旅客鉄道", "operator:ja_rm": "Higashi-Nihon Ryokaku Tetsudō", "railway": "rail", "source": "Bing", "usage": "main", "voltage": "1500" }, "geometry": { "type": "LineString", "coordinates": [ [ 37.645637261708067, 55.763388332667688 ], [ 37.645619661708061, 55.763187032667688 ] ] } },
{ "type": "Feature", "properties": { "bridge": "yes", "electrified": "contact_line", "frequency": "0", "gauge": "1067", "layer": "1", "maxspeed": "90", "name": "山手線", "name:de": "Yamanote-Linie", "name:en": "Yamanote Line", "name:es": "JR Yamanote", "name:ja": "山手線", "name:ja_rm": "Yamanote-sen", "operator": "東日本旅客鉄道", "operator:en": "East Japan Railway", "operator:ja": "東日本旅客鉄道", "operator:ja_rm": "Higashi-Nihon Ryokaku Tetsudō", "railway": "rail", "source": "Bing", "usage": "main", "voltage": "1500" }, "geometry": { "type": "LineString", "coordinates": [ [ 37.630649261708051, 55.729470232667687 ], [ 37.630677961708052, 55.72929723266769 ] ] } },
{ "type": "Feature", "properties": { "name": "渋谷", "name:en": "Shibuya", "name:es": "Shibuya", "name:ja": "渋谷", "name:ja_rm": "Shibuya", "name:ru": "Сибуя", "name:ko": "시부야", "public_transport": "stop_position", "train": "yes", "name:fr": "Shibuya" }, "geometry": { "type": "Point", "coordinates": [ 139.701560300000011, 35.65807 ] } },
{ "type": "Feature", "properties": { "electrified": "contact_line", "frequency": "0", "gauge": "1067", "layer": "-1", "maxspeed": "90", "name": "山手線", "name:de": "Yamanote-Linie", "name:en": "Yamanote Line", "name:es": "JR Yamanote", "name:ja": "山手線", "name:ja_rm": "Yamanote-sen", "operator": "東日本旅客鉄道", "operator:en": "East Japan Railway", "operator:ja": "東日本旅客鉄道", "operator:ja_rm": "Higashi-Nihon Ryokaku Tetsudō", "railway": "rail", "source": "Bing", "usage": "main", "voltage": "1500", "name:ja_kana": "やまのてせん", "name:ru": "Линия JR Яманотэ", "railway:traffic_mode": "passenger", "tunnel": "yes", "level": "0" }, "geometry": { "type": "LineString", "coordinates": [ [ 37.572906061708046, 55.751934632667684 ], [ 37.572742061708063, 55.752479132667688 ], [ 37.572681461708051, 55.752768232667684 ], [ 37.572511361708059, 55.75357863266769 ] ] } },
{ "type": "Feature", "properties": { "bridge": "yes", "electrified": "contact_line", "frequency": "0", "gauge": "1067", "layer": "1", "maxspeed": "90", "name": "山手線", "name:de": "Yamanote-Linie", "name:en": "Yamanote Line", "name:es": "Línea Yamanote", "name:ja": "山手線", "name:ja_rm": "Yamanote-sen", "operator": "東日本旅客鉄道", "operator:en": "East Japan Railway", "operator:ja": "東日本旅客鉄道", "operator:ja_rm": "Higashi-Nihon Ryokaku Tetsudō", "railway": "rail", "source": "Bing", "usage": "main", "voltage": "1500", "name:ja_kana": "やまのてせん", "name:ru": "Линия JR Яманотэ", "railway:traffic_mode": "passenger" }, "geometry": { "type": "LineString", "coordinates": [ [ 37.581081261708057, 55.713039332667684 ], [ 37.581040161708053, 55.713112532667687 ] ] } },
{ "type": "Feature", "properties": { "electrified": "contact_line", "frequency": "0", "gauge": "1067", "layer": "1", "maxspeed": "90", "name": "山手線", "name:de": "Yamanote-Linie", "name:en": "Yamanote Line", "name:ja": "山手線", "name:ja_rm": "Yamanote-sen", "operator": "東日本旅客鉄道", "operator:en": "East Japan Railway", "operator:ja": "東日本旅客鉄道", "operator:ja_rm": "Higashi-Nihon Ryokaku Tetsudō", "railway": "rail", "source": "Bing", "usage": "main", "voltage": "1500", "name:ko": "야마노테선", "embankment": "yes" }, "geometry": { "type": "LineString", "coordinates": [ [ 37.645906561708053, 55.76526123266769 ], [ 37.645650061708047, 55.763534732667686 ], [ 37.645637261708067, 55.763388332667688 ] ] } },
{ "type": "Feature", "properties": { "bridge": "yes", "electrified": "contact_line", "frequency": "0", "gauge": "1067", "layer": "1", "maxspeed": "90", "name": "山手線", "name:de": "Yamanote-Linie", "name:en": "Yamanote Line", "name:ja": "山手線", "name:ja_rm": "Yamanote-sen", "operator": "東日本旅客鉄道", "operator:en": "East Japan Railway", "operator:ja": "東日本旅客鉄道", "operator:ja_rm": "Higashi-Nihon Ryokaku Tetsudō", "railway": "rail", "source": "Bing", "usage": "main", "voltage": "1500", "name:ja_kana": "やまのてせん", "name:ru": "Линия JR Яманотэ", "railway:traffic_mode": "passenger" }, "geometry": { "type": "LineString", "coordinates": [ [ 37.576991461708054, 55.779172232667683 ], [ 37.577053661708057, 55.779348132667685 ] ] } },
{ "type": "Feature", "properties": { "name": "有楽町", "name:en": "Yurakucho", "name:es": "Yurakucho", "name:ja": "有楽町", "name:ja_rm": "Yūrakuchō", "name:ja_kana": "ゆうらくちょう", "name:ru": "Юракутё", "public_transport": "stop_position", "train": "yes", "name:fr": "Yūrakuchō" }, "geometry": { "type": "Point", "coordinates": [ 139.7630656, 35.6749443 ] } },
{ "type": "Feature", "properties": { "electrified": "contact_line", "frequency": "0", "gauge": "1067", "maxspeed": "90", "name": "山手線", "name:de": "Yamanote-Linie", "name:en": "Yamanote Line", "name:ja": "山手線", "name:ja_rm": "Yamanote-sen", "operator": "東日本旅客鉄道", "operator:en": "East Japan Railway", "operator:ja": "東日本旅客鉄道", "operator:ja_rm": "Higashi-Nihon Ryokaku Tetsudō", "railway": "rail", "source": "Bing", "usage": "main", "voltage": "1500", "name:ja_kana": "やまのてせん", "name:ru": "Линия JR Яманотэ", "railway:traffic_mode": "passenger" }, "geometry": { "type": "LineString", "coordinates": [ [ 37.586060961708064, 55.703725032667684 ], [ 37.585965961708048, 55.703944232667688 ], [ 37.58586666170806, 55.704196032667689 ] ] } },
{ "type": "Feature", "properties": { "name": "神田", "name:en": "Kanda", "name:ja": "神田", "name:ja_rm": "Kanda", "railway": "stop", "name:ja_kana": "かんだ", "name:ru": "Канда", "public_transport": "stop_position", "train": "yes" }, "geometry": { "type": "Point", "coordinates": [ 139.7710145, 35.6917665 ] } },
{ "type": "Feature", "properties": { "electrified": "contact_line", "frequency": "0", "gauge": "1067", "maxspeed": "90", "name": "山手線", "name:de": "Yamanote-Linie", "name:en": "Yamanote Line", "name:es": "Línea Yamanote", "name:ja": "山手線", "name:ja_rm": "Yamanote-sen", "operator": "東日本旅客鉄道", "operator:en": "East Japan Railway", "operator:ja": "東日本旅客鉄道", "operator:ja_rm": "Higashi-Nihon Ryokaku Tetsudō", "railway": "rail", "source": "Bing", "usage": "main", "voltage": "1500", "name:ja_kana": "やまのてせん", "name:ru": "Линия JR Яманотэ", "railway:traffic_mode": "passenger" }, "geometry": { "type": "LineString", "coordinates": [ [ 37.600482761708044, 55.684029432667685 ], [ 37.60003726170806, 55.684587632667686 ], [ 37.599751861708064, 55.684963032667689 ], [ 37.59938696170807, 55.685530832667688 ] ] } },
{ "type": "Feature", "properties": { "electrified": "contact_line", "frequency": "0", "gauge": "1067", "layer": "-1", "maxspeed": "90", "name": "山手線", "name:de": "Yamanote-Linie", "name:en": "Yamanote Line", "name:es": "JR Yamanote", "name:ja": "山手線", "name:ja_rm": "Yamanote-sen", "operator": "東日本旅客鉄道", "operator:en": "East Japan Railway", "operator:ja": "東日本旅客鉄道", "operator:ja_rm": "Higashi-Nihon Ryokaku Tetsudō", "railway": "rail", "source": "Bing", "usage": "main", "voltage": "1500", "name:ja_kana": "やまのてせん", "name:ru": "Линия JR Яманотэ", "railway:traffic_mode": "passenger" }, "geometry": { "type": "LineString", "coordinates": [ [ 37.574339261708054, 55.730310732667689 ], [ 37.574521961708065, 55.731622132667688 ], [ 37.574634261708049, 55.732509032667686 ], [ 37.574802961708066, 55.734015132667686 ], [ 37.574845461708044, 55.734308832667686 ], [ 37.574909161708071, 55.734618332667687 ], [ 37.574980861708049, 55.734941832667687 ], [ 37.575049261708052, 55.735244732667688 ], [ 37.575117661708056, 55.735523132667687 ], [ 37.575164561708057, 55.735665232667685 ], [ 37.575224261708065, 55.735847232667687 ], [ 37.575300361708067, 55.736047232667687 ], [ 37.575336161708044, 55.73614473266769 ] ] } },
{ "type": "Feature", "properties": { "electrified": "contact_line", "frequency": "0", "gauge": "1067", "layer": "1", "maxspeed": "90", "name": "山手線", "name:de": "Yamanote-Linie", "name:en": "Yamanote Line", "name:ja": "山手線", "name:ja_rm": "Yamanote-sen", "operator": "東日本旅客鉄道", "operator:en": "East Japan Railway", "operator:ja": "東日本旅客鉄道", "operator:ja_rm": "Higashi-Nihon Ryokaku Tetsudō", "railway": "rail", "source": "Bing", "usage": "main", "voltage": "1500", "embankment": "yes" }, "geometry": { "type": "LineString", "coordinates": [ [ 37.641856461708052, 55.751760732667684 ], [ 37.64177286170807, 55.751559532667684 ], [ 37.641606461708058, 55.751151332667689 ], [ 37.641414561708054, 55.750639132667686 ], [ 37.641266561708058, 55.750258132667689 ], [ 37.641122161708047, 55.749871132667685 ], [ 37.640944261708064, 55.749426232667687 ], [ 37.640592061708055, 55.74868893266769 ], [ 37.640446461708059, 55.748326132667685 ], [ 37.640412561708054, 55.748236832667686 ] ] } },
{ "type": "Feature", "properties": { "bridge": "yes", "electrified": "contact_line", "frequency": "0", "gauge": "1067", "layer": "1", "maxspeed": "90", "name": "山手線", "name:de": "Yamanote-Linie", "name:en": "Yamanote Line", "name:ja": "山手線", "name:ja_rm": "Yamanote-sen", "operator": "東日本旅客鉄道", "operator:en": "East Japan Railway", "operator:ja": "東日本旅客鉄道", "operator:ja_rm": "Higashi-Nihon Ryokaku Tetsudō", "railway": "rail", "source": "Bing", "usage": "main", "voltage": "1500", "name:ja_kana": "やまのてせん", "name:ko": "야마노테선" }, "geometry": { "type": "LineString", "coordinates": [ [ 37.607602161708066, 55.681113432667686 ], [ 37.607487561708048, 55.681059432667688 ], [ 37.607373561708052, 55.681010832667688 ], [ 37.60722566170805, 55.680956732667688 ], [ 37.607090161708051, 55.680913832667684 ] ] } },
{ "type": "Feature", "properties": { "electrified": "contact_line", "frequency": "0", "gauge": "1067", "maxspeed": "90", "name": "山手線", "name:de": "Yamanote-Linie", "name:en": "Yamanote Line", "name:es": "JR Yamanote", "name:ja": "山手線", "name:ja_rm": "Yamanote-sen", "operator": "東日本旅客鉄道", "operator:en": "East Japan Railway", "operator:ja": "東日本旅客鉄道", "operator:ja_rm": "Higashi-Nihon Ryokaku Tetsudō", "railway": "rail", "source": "Bing", "usage": "main", "voltage": "1500", "name:ja_kana": "やまのてせん", "railway:traffic_mode": "passenger", "name:ko": "야마노테선" }, "geometry": { "type": "LineString", "coordinates": [ [ 37.632520361708067, 55.802560532667684 ], [ 37.632727561708045, 55.80238593266769 ], [ 37.634148861708049, 55.801168532667688 ], [ 37.634312261708068, 55.801028632667688 ], [ 37.634864961708054, 55.800569532667687 ], [ 37.635516161708047, 55.800003032667689 ], [ 37.635831961708057, 55.799721032667684 ], [ 37.636111361708068, 55.799464732667687 ], [ 37.636419261708063, 55.799189232667686 ], [ 37.636708261708044, 55.798925232667685 ], [ 37.636962461708045, 55.798674032667684 ], [ 37.637134561708059, 55.798496232667688 ], [ 37.637194461708056, 55.798434332667689 ], [ 37.637377661708065, 55.798238232667686 ], [ 37.637557661708065, 55.798040932667689 ], [ 37.637797661708056, 55.797776832667687 ], [ 37.638013961708062, 55.797514132667686 ], [ 37.638294961708063, 55.797155332667685 ], [ 37.638448161708062, 55.796938732667684 ], [ 37.639104961708064, 55.79599983266769 ], [ 37.639425461708051, 55.795541732667687 ], [ 37.639856461708071, 55.794958532667685 ], [ 37.64119776170805, 55.793412232667684 ], [ 37.641720661708071, 55.792833332667684 ], [ 37.641970561708071, 55.79257793266769 ], [ 37.642230261708058, 55.792332932667684 ], [ 37.642853861708069, 55.791775132667688 ], [ 37.643513761708057, 55.791201732667687 ], [ 37.643728861708048, 55.791009332667684 ], [ 37.643897461708072, 55.790874132667689 ], [ 37.644055661708059, 55.790760332667688 ], [ 37.64414916170805, 55.790689832667688 ], [ 37.644423761708062, 55.790502332667685 ], [ 37.644979961708067, 55.790142632667688 ], [ 37.645396161708057, 55.789873832667688 ], [ 37.645720361708051, 55.78964903266769 ], [ 37.646020761708066, 55.789426432667689 ], [ 37.646313861708059, 55.789182632667689 ], [ 37.646576461708044, 55.788941732667688 ], [ 37.646870761708051, 55.788665332667684 ], [ 37.647139461708043, 55.788418532667684 ], [ 37.647539561708051, 55.78804933266769 ], [ 37.647811961708051, 55.787793632667686 ], [ 37.648141461708072, 55.787488532667687 ], [ 37.648526961708065, 55.787128232667683 ], [ 37.648827361708051, 55.786845832667687 ], [ 37.649189661708057, 55.786515132667688 ], [ 37.649429261708072, 55.786298932667684 ], [ 37.64989256170805, 55.785899132667687 ], [ 37.650231861708058, 55.78560693266769 ], [ 37.650478661708071, 55.785379832667687 ], [ 37.650713361708064, 55.78514783266769 ], [ 37.651053461708052, 55.784808232667686 ], [ 37.65146856170805, 55.784393632667687 ], [ 37.651661561708046, 55.784182632667687 ], [ 37.65184246170805, 55.78394153266769 ], [ 37.651956361708052, 55.783738532667684 ], [ 37.65205006170806, 55.783517332667685 ], [ 37.652112661708067, 55.783319732667685 ], [ 37.652175161708051, 55.783055132667684 ], [ 37.652192961708046, 55.782891932667688 ], [ 37.652199661708046, 55.782658132667684 ], [ 37.652181861708051, 55.782438732667686 ], [ 37.652138661708058, 55.782133732667688 ], [ 37.652108061708056, 55.781991132667684 ], [ 37.652054161708044, 55.781783832667685 ], [ 37.651970561708062, 55.781568132667687 ], [ 37.651862861708061, 55.781350932667685 ], [ 37.651728161708071, 55.781134532667686 ], [ 37.651545261708044, 55.780902332667686 ], [ 37.651381761708059, 55.780713032667684 ], [ 37.651118361708065, 55.780417232667688 ], [ 37.650815261708068, 55.780075332667685 ], [ 37.650525861708054, 55.779740032667689 ], [ 37.650318561708055, 55.779509432667687 ], [ 37.650124561708061, 55.779291432667684 ], [ 37.649887761708051, 55.779013132667686 ], [ 37.64986336170805, 55.778987532667685 ], [ 37.649690861708059, 55.778804232667689 ], [ 37.649632561708053, 55.778762132667687 ], [ 37.64946106170806, 55.778568832667688 ], [ 37.649227461708058, 55.778281532667684 ], [ 37.648572161708053, 55.777354432667686 ], [ 37.648260361708061, 55.776900732667684 ] ] } },
{ "type": "Feature", "properties": { "bridge": "yes", "electrified": "contact_line", "frequency": "0", "gauge": "1067", "layer": "1", "maxspeed": "90", "name": "山手線", "name:de": "Yamanote-Linie", "name:en": "Yamanote Line", "name:ja": "山手線", "name:ja_rm": "Yamanote-sen", "operator": "東日本旅客鉄道", "operator:en": "East Japan Railway", "operator:ja": "東日本旅客鉄道", "operator:ja_rm": "Higashi-Nihon Ryokaku Tetsudō", "railway": "rail", "source": "Bing", "usage": "main", "voltage": "1500", "name:ja_kana": "やまのてせん", "name:ru": "Линия JR Яманотэ", "railway:traffic_mode": "passenger" }, "geometry": { "type": "LineString", "coordinates": [ [ 37.596529661708054, 55.689288532667689 ], [ 37.596326361708044, 55.689556632667689 ] ] } },
{ "type": "Feature", "properties": { "electrified": "contact_line", "frequency": "0", "gauge": "1067", "layer": "1", "name": "山手線", "name:en": "Yamanote Line", "name:es": "Línea Yamanote", "name:ja": "山手線", "name:ja_rm": "Yamanote-sen", "operator": "東日本旅客鉄道", "operator:en": "East Japan Railway", "operator:ja": "東日本旅客鉄道", "operator:ja_rm": "Higashi-Nihon Ryokaku Tetsudō", "railway": "rail", "source": "Bing", "voltage": "1500", "name:ja_kana": "やまのてせん", "name:ru": "Линия JR Яманотэ", "railway:traffic_mode": "passenger", "tunnel": "building_passage", "service": "siding" }, "geometry": { "type": "LineString", "coordinates": [ [ 37.582496461708054, 55.792187632667684 ], [ 37.582752361708067, 55.792777232667689 ] ] } },
{ "type": "Feature", "properties": { "electrified": "contact_line", "frequency": "0", "gauge": "1067", "layer": "-1", "maxspeed": "90", "name": "山手線", "name:de": "Yamanote-Linie", "name:en": "Yamanote Line", "name:ja": "山手線", "name:ja_rm": "Yamanote-sen", "operator": "東日本旅客鉄道", "operator:en": "East Japan Railway", "operator:ja": "東日本旅客鉄道", "operator:ja_rm": "Higashi-Nihon Ryokaku Tetsudō", "railway": "rail", "source": "Bing", "usage": "main", "voltage": "1500", "name:ja_kana": "やまのてせん", "name:ru": "Линия JR Яманотэ", "railway:traffic_mode": "passenger" }, "geometry": { "type": "LineString", "coordinates": [ [ 37.58586666170806, 55.704196032667689 ], [ 37.585703161708047, 55.704555132667686 ], [ 37.585509561708058, 55.704932132667686 ], [ 37.58531276170806, 55.705291532667687 ], [ 37.585111061708069, 55.705667332667687 ], [ 37.58492516170805, 55.706010732667686 ], [ 37.584748461708053, 55.706337932667687 ], [ 37.584685761708052, 55.706453632667689 ] ] } },
{ "type": "Feature", "properties": { "name": "新橋", "name:en": "Shimbashi", "name:es": "Shimbashi", "name:ja": "新橋", "name:ja_rm": "Shimbashi", "name:ja_kana": "しんばし", "name:ru": "Симбаси", "public_transport": "stop_position", "train": "yes", "name:fr": "Shimbashi" }, "geometry": { "type": "Point", "coordinates": [ 139.758144499999986, 35.6661619 ] } },
{ "type": "Feature", "properties": { "electrified": "contact_line", "frequency": "0", "gauge": "1067", "layer": "1", "maxspeed": "90", "name": "山手線", "name:de": "Yamanote-Linie", "name:en": "Yamanote Line", "name:ja": "山手線", "name:ja_rm": "Yamanote-sen", "operator": "東日本旅客鉄道", "operator:en": "East Japan Railway", "operator:ja": "東日本旅客鉄道", "operator:ja_rm": "Higashi-Nihon Ryokaku Tetsudō", "railway": "rail", "source": "Bing", "usage": "main", "voltage": "1500", "name:ja_kana": "やまのてせん", "name:ru": "Линия JR Яманотэ", "railway:traffic_mode": "passenger" }, "geometry": { "type": "LineString", "coordinates": [ [ 37.577262661708069, 55.779993532667689 ], [ 37.577606561708059, 55.781156832667683 ] ] } },
{ "type": "Feature", "properties": { "electrified": "contact_line", "frequency": "0", "gauge": "1067", "layer": "1", "maxspeed": "90", "name": "山手線", "name:de": "Yamanote-Linie", "name:en": "Yamanote Line", "name:ja": "山手線", "name:ja_rm": "Yamanote-sen", "operator": "東日本旅客鉄道", "operator:en": "East Japan Railway", "operator:ja": "東日本旅客鉄道", "operator:ja_rm": "Higashi-Nihon Ryokaku Tetsudō", "railway": "rail", "source": "Bing", "usage": "main", "voltage": "1500", "name:ja_kana": "やまのてせん", "name:ru": "Линия JR Яманотэ", "railway:traffic_mode": "passenger" }, "geometry": { "type": "LineString", "coordinates": [ [ 37.574915761708048, 55.746332732667689 ], [ 37.57475806170806, 55.746657932667688 ], [ 37.57474196170805, 55.746694132667685 ] ] } },
{ "type": "Feature", "properties": { "bridge": "yes", "electrified": "contact_line", "frequency": "0", "gauge": "1067", "layer": "1", "maxspeed": "90", "name": "山手線 (Yamanote Line)", "name:de": "Yamanote-Linie", "name:en": "Yamanote Line", "name:ja": "山手線", "name:ja_rm": "Yamanote-sen", "operator": "東日本旅客鉄道", "operator:en": "East Japan Railway", "operator:ja": "東日本旅客鉄道", "operator:ja_rm": "Higashi-Nihon Ryokaku Tetsudō", "railway": "rail", "source": "Bing", "usage": "main", "voltage": "1500" }, "geometry": { "type": "LineString", "coordinates": [ [ 37.629923261708065, 55.720464332667689 ], [ 37.629839761708048, 55.72014403266769 ] ] } },
{ "type": "Feature", "properties": { "bridge": "yes", "electrified": "contact_line", "frequency": "0", "gauge": "1067", "layer": "1", "maxspeed": "90", "name": "山手線", "name:de": "Yamanote-Linie", "name:en": "Yamanote Line", "name:es": "Línea Yamanote", "name:ja": "山手線", "name:ja_rm": "Yamanote-sen", "operator": "東日本旅客鉄道", "operator:en": "East Japan Railway", "operator:ja": "東日本旅客鉄道", "operator:ja_rm": "Higashi-Nihon Ryokaku Tetsudō", "railway": "rail", "source": "Bing", "usage": "main", "voltage": "1500", "name:ja_kana": "やまのてせん", "name:ru": "Линия JR Яманотэ", "railway:traffic_mode": "passenger" }, "geometry": { "type": "LineString", "coordinates": [ [ 37.573774561708071, 55.72579983266769 ], [ 37.57378736170805, 55.725952032667685 ] ] } },
{ "type": "Feature", "properties": { "bridge": "yes", "electrified": "contact_line", "frequency": "0", "gauge": "1067", "layer": "1", "maxspeed": "90", "name": "山手線", "name:de": "Yamanote-Linie", "name:en": "Yamanote Line", "name:es": "Línea Yamanote", "name:ja": "山手線", "name:ja_rm": "Yamanote-sen", "operator": "東日本旅客鉄道", "operator:en": "East Japan Railway", "operator:ja": "東日本旅客鉄道", "operator:ja_rm": "Higashi-Nihon Ryokaku Tetsudō", "railway": "rail", "source": "Bing", "usage": "main", "voltage": "1500", "name:ja_kana": "やまのてせん", "name:ru": "Линия JR Яманотэ", "railway:traffic_mode": "passenger" }, "geometry": { "type": "LineString", "coordinates": [ [ 37.602491061708044, 55.795089232667685 ], [ 37.602750761708059, 55.795023432667683 ] ] } },
{ "type": "Feature", "properties": { "electrified": "contact_line", "frequency": "0", "gauge": "1067", "maxspeed": "90", "name": "山手線", "name:de": "Yamanote-Linie", "name:en": "Yamanote Line", "name:ja": "山手線", "name:ja_rm": "Yamanote-sen", "operator": "東日本旅客鉄道", "operator:en": "East Japan Railway", "operator:ja": "東日本旅客鉄道", "operator:ja_rm": "Higashi-Nihon Ryokaku Tetsudō", "railway": "rail", "source": "Bing", "usage": "main", "voltage": "1500", "name:ja_kana": "やまのてせん", "railway:traffic_mode": "passenger" }, "geometry": { "type": "LineString", "coordinates": [ [ 37.632327961708064, 55.802712232667687 ], [ 37.632520361708067, 55.802560532667684 ] ] } },
{ "type": "Feature", "properties": { "electrified": "contact_line", "frequency": "0", "gauge": "1067", "layer": "1", "maxspeed": "90", "name": "山手線", "name:de": "Yamanote-Linie", "name:en": "Yamanote Line", "name:ja": "山手線", "name:ja_rm": "Yamanote-sen", "operator": "東日本旅客鉄道", "operator:en": "East Japan Railway", "operator:ja": "東日本旅客鉄道", "operator:ja_rm": "Higashi-Nihon Ryokaku Tetsudō", "railway": "rail", "source": "Bing", "usage": "main", "voltage": "1500", "name:ja_kana": "やまのてせん", "name:ru": "Линия JR Яманотэ", "railway:traffic_mode": "passenger" }, "geometry": { "type": "LineString", "coordinates": [ [ 37.573079361708047, 55.767988732667689 ], [ 37.57327176170805, 55.768557632667687 ], [ 37.573404761708055, 55.768931632667687 ], [ 37.573530161708057, 55.769285332667685 ], [ 37.573666361708071, 55.769663732667688 ], [ 37.57380586170806, 55.770053432667687 ], [ 37.573936661708053, 55.77043003266769 ], [ 37.57407826170806, 55.770830332667686 ], [ 37.574216961708068, 55.771238932667686 ], [ 37.574363661708055, 55.771637132667685 ], [ 37.574419861708044, 55.771798632667689 ], [ 37.574494461708049, 55.772009232667685 ], [ 37.57459786170805, 55.772305932667685 ], [ 37.574640361708056, 55.772428032667683 ], [ 37.574779861708045, 55.772816032667684 ], [ 37.574869561708063, 55.773064432667688 ] ] } },
{ "type": "Feature", "properties": { "name": "目白", "name:en": "Mejiro", "name:ja": "目白", "name:ja_rm": "Mejiro", "name:ja_kana": "めじろ", "name:ru": "Мэдзиро", "public_transport": "stop_position", "train": "yes" }, "geometry": { "type": "Point", "coordinates": [ 139.706424, 35.7212031 ] } },
{ "type": "Feature", "properties": { "electrified": "contact_line", "frequency": "0", "gauge": "1067", "layer": "1", "maxspeed": "90", "name": "山手線", "name:de": "Yamanote-Linie", "name:en": "Yamanote Line", "name:es": "JR Yamanote", "name:ja": "山手線", "name:ja_rm": "Yamanote-sen", "operator": "東日本旅客鉄道", "operator:en": "East Japan Railway", "operator:ja": "東日本旅客鉄道", "operator:ja_rm": "Higashi-Nihon Ryokaku Tetsudō", "railway": "rail", "source": "Bing", "usage": "main", "voltage": "1500", "embankment": "yes" }, "geometry": { "type": "LineString", "coordinates": [ [ 37.630428961708056, 55.731180932667684 ], [ 37.63042346170807, 55.731026032667685 ], [ 37.630448161708053, 55.730729432667687 ], [ 37.630506861708064, 55.73034663266769 ], [ 37.630566561708044, 55.729948632667686 ], [ 37.630649261708051, 55.729470232667687 ] ] } },
{ "type": "Feature", "properties": { "electrified": "contact_line", "frequency": "0", "gauge": "1067", "layer": "1", "maxspeed": "90", "name": "山手線 (Yamanote Line)", "name:de": "Yamanote-Linie", "name:en": "Yamanote Line", "name:es": "Línea Yamanote", "name:ja": "山手線", "name:ja_rm": "Yamanote-sen", "operator": "東日本旅客鉄道", "operator:en": "East Japan Railway", "operator:ja": "東日本旅客鉄道", "operator:ja_rm": "Higashi-Nihon Ryokaku Tetsudō", "railway": "rail", "source": "Bing", "usage": "main", "voltage": "1500", "name:ko": "야마노테선" }, "geometry": { "type": "LineString", "coordinates": [ [ 37.626090561708061, 55.712529432667687 ], [ 37.625433161708067, 55.712061432667689 ], [ 37.62477166170806, 55.711697732667687 ], [ 37.624010561708054, 55.711332832667686 ], [ 37.623242961708065, 55.710961532667689 ], [ 37.622336361708058, 55.710529432667684 ], [ 37.62221616170806, 55.710472932667685 ], [ 37.621538861708054, 55.71014323266769 ], [ 37.621255661708069, 55.710017832667688 ], [ 37.621018961708053, 55.709935132667688 ], [ 37.620114961708062, 55.70950903266769 ], [ 37.619807661708059, 55.709364132667687 ], [ 37.619332861708052, 55.709131132667686 ], [ 37.618676161708045, 55.70879463266769 ], [ 37.618396261708064, 55.708641332667689 ] ] } },
{ "type": "Feature", "properties": { "electrified": "contact_line", "frequency": "0", "gauge": "1067", "layer": "1", "maxspeed": "90", "name": "山手線", "name:de": "Yamanote-Linie", "name:en": "Yamanote Line", "name:ja": "山手線", "name:ja_rm": "Yamanote-sen", "operator": "東日本旅客鉄道", "operator:en": "East Japan Railway", "operator:ja": "東日本旅客鉄道", "operator:ja_rm": "Higashi-Nihon Ryokaku Tetsudō", "railway": "rail", "source": "Bing", "usage": "main", "voltage": "1500", "name:ja_kana": "やまのてせん", "name:ru": "Линия JR Яманотэ", "railway:traffic_mode": "passenger" }, "geometry": { "type": "LineString", "coordinates": [ [ 37.572077261708053, 55.757604932667689 ], [ 37.572050061708048, 55.757708532667685 ], [ 37.571960661708069, 55.758052932667688 ], [ 37.571853861708071, 55.758476132667688 ], [ 37.571801461708056, 55.758726732667689 ], [ 37.571766561708053, 55.758971032667688 ], [ 37.57174586170806, 55.759173832667685 ], [ 37.571733861708061, 55.759450032667687 ], [ 37.571739961708069, 55.759702232667685 ] ] } },
{ "type": "Feature", "properties": { "electrified": "contact_line", "frequency": "0", "gauge": "1067", "layer": "-1", "maxspeed": "90", "name": "山手線", "name:de": "Yamanote-Linie", "name:en": "Yamanote Line", "name:es": "Línea Yamanote", "name:ja": "山手線", "name:ja_rm": "Yamanote-sen", "operator": "東日本旅客鉄道", "operator:en": "East Japan Railway", "operator:ja": "東日本旅客鉄道", "operator:ja_rm": "Higashi-Nihon Ryokaku Tetsudō", "railway": "rail", "source": "Bing", "usage": "main", "voltage": "1500", "name:ja_kana": "やまのてせん", "name:ru": "Линия JR Яманотэ", "railway:traffic_mode": "passenger" }, "geometry": { "type": "LineString", "coordinates": [ [ 37.589426261708049, 55.69428293266769 ], [ 37.589273761708064, 55.694465232667689 ], [ 37.589130261708057, 55.694674432667689 ], [ 37.588998261708049, 55.694891632667684 ], [ 37.588884461708069, 55.695117432667686 ], [ 37.588836661708065, 55.695224032667689 ] ] } },
{ "type": "Feature", "properties": { "electrified": "contact_line", "frequency": "0", "gauge": "1067", "layer": "1", "maxspeed": "90", "name": "山手線", "name:de": "Yamanote-Linie", "name:en": "JR Yamanote Line", "name:es": "JR Yamanote", "name:ja": "山手線", "name:ja_rm": "Yamanote-sen", "operator": "東日本旅客鉄道", "operator:en": "East Japan Railway", "operator:ja": "東日本旅客鉄道", "operator:ja_rm": "Higashi-Nihon Ryokaku Tetsudō", "railway": "rail", "source": "Bing", "usage": "main", "voltage": "1500", "name:ja_kana": "やまのてせん", "name:ru": "Линия JR Яманотэ", "railway:traffic_mode": "passenger" }, "geometry": { "type": "LineString", "coordinates": [ [ 37.574971861708072, 55.773379032667684 ], [ 37.575224361708059, 55.774091832667686 ], [ 37.575363861708048, 55.77448553266769 ], [ 37.575607861708058, 55.775247332667689 ], [ 37.575792361708046, 55.775843932667684 ], [ 37.575990561708046, 55.776486232667686 ], [ 37.576121761708045, 55.776911632667684 ], [ 37.576211161708052, 55.777175632667685 ], [ 37.576319161708064, 55.777473132667687 ], [ 37.576586061708049, 55.778070732667686 ], [ 37.576739961708064, 55.778439132667685 ] ] } },
{ "type": "Feature", "properties": { "electrified": "contact_line", "frequency": "0", "gauge": "1067", "maxspeed": "90", "name": "山手線", "name:de": "Yamanote-Linie", "name:en": "Yamanote Line", "name:es": "Línea Yamanote", "name:ja": "山手線", "name:ja_rm": "Yamanote-sen", "operator": "東日本旅客鉄道", "operator:en": "East Japan Railway", "operator:ja": "東日本旅客鉄道", "operator:ja_rm": "Higashi-Nihon Ryokaku Tetsudō", "railway": "rail", "source": "Bing", "usage": "main", "voltage": "1500", "name:ja_kana": "やまのてせん", "name:ru": "Линия JR Яманотэ", "railway:traffic_mode": "passenger" }, "geometry": { "type": "LineString", "coordinates": [ [ 37.579645861708066, 55.715301532667688 ], [ 37.578800561708057, 55.716292632667688 ], [ 37.577708361708069, 55.717467532667683 ], [ 37.576999061708058, 55.718133832667689 ], [ 37.576788761708066, 55.718368732667685 ], [ 37.57631796170805, 55.718902832667688 ], [ 37.575799061708047, 55.719510132667686 ], [ 37.575388761708048, 55.719976332667684 ], [ 37.575019061708055, 55.720394232667687 ], [ 37.574662161708069, 55.720823432667686 ] ] } },
{ "type": "Feature", "properties": { "bridge": "yes", "electrified": "contact_line", "frequency": "0", "gauge": "1067", "layer": "1", "maxspeed": "90", "name": "山手線", "name:de": "Yamanote-Linie", "name:en": "Yamanote Line", "name:ja": "山手線", "name:ja_rm": "Yamanote-sen", "operator": "東日本旅客鉄道", "operator:en": "East Japan Railway", "operator:ja": "東日本旅客鉄道", "operator:ja_rm": "Higashi-Nihon Ryokaku Tetsudō", "railway": "rail", "source": "Bing", "usage": "main", "voltage": "1500", "name:ja_kana": "やまのてせん", "name:ru": "Линия JR Яманотэ", "railway:traffic_mode": "passenger" }, "geometry": { "type": "LineString", "coordinates": [ [ 37.595837661708067, 55.690195832667683 ], [ 37.595616761708051, 55.690461732667686 ] ] } },
{ "type": "Feature", "properties": { "electrified": "contact_line", "frequency": "0", "gauge": "1067", "layer": "1", "maxspeed": "90", "name": "山手線", "name:de": "Yamanote-Linie", "name:en": "Yamanote Line", "name:ja": "山手線", "name:ja_rm": "Yamanote-sen", "operator": "東日本旅客鉄道", "operator:en": "East Japan Railway", "operator:ja": "東日本旅客鉄道", "operator:ja_rm": "Higashi-Nihon Ryokaku Tetsudō", "railway": "rail", "source": "Bing", "usage": "main", "voltage": "1500", "name:ja_kana": "やまのてせん", "name:ru": "Линия JR Яманотэ", "railway:traffic_mode": "passenger" }, "geometry": { "type": "LineString", "coordinates": [ [ 37.587213261708065, 55.701662232667687 ], [ 37.587140961708066, 55.701882132667684 ], [ 37.587076861708063, 55.702035632667688 ], [ 37.587003361708049, 55.702177832667687 ], [ 37.586978861708054, 55.702220232667685 ] ] } },
{ "type": "Feature", "properties": { "electrified": "contact_line", "frequency": "0", "gauge": "1067", "layer": "1", "maxspeed": "90", "name": "山手線", "name:de": "Yamanote-Linie", "name:en": "Yamanote Line", "name:ja": "山手線", "name:ja_rm": "Yamanote-sen", "operator": "東日本旅客鉄道", "operator:en": "East Japan Railway", "operator:ja": "東日本旅客鉄道", "operator:ja_rm": "Higashi-Nihon Ryokaku Tetsudō", "railway": "rail", "source": "Bing", "usage": "main", "voltage": "1500", "name:ja_kana": "やまのてせん", "name:ru": "Линия JR Яманотэ", "railway:traffic_mode": "passenger" }, "geometry": { "type": "LineString", "coordinates": [ [ 37.612108161708058, 55.797373632667686 ], [ 37.613942861708047, 55.798091732667686 ], [ 37.61431526170805, 55.798240132667686 ], [ 37.614724961708056, 55.798399632667689 ], [ 37.615124561708065, 55.798557132667689 ], [ 37.615494761708057, 55.798712932667684 ], [ 37.615936061708062, 55.798895232667689 ], [ 37.616374261708053, 55.799070132667687 ], [ 37.616841161708045, 55.799245632667684 ], [ 37.617294461708049, 55.799418632667688 ], [ 37.617662361708064, 55.79955983266769 ], [ 37.618056961708056, 55.799727232667685 ], [ 37.618424561708061, 55.79987543266769 ], [ 37.618771561708066, 55.800026432667686 ], [ 37.618939761708056, 55.800104832667685 ], [ 37.619641061708059, 55.800405832667686 ], [ 37.621123161708063, 55.801041832667686 ], [ 37.621931661708068, 55.801385432667686 ], [ 37.622341861708044, 55.801575132667686 ], [ 37.622569561708055, 55.801686932667685 ], [ 37.622634561708061, 55.801718832667689 ], [ 37.622786661708069, 55.801793832667684 ], [ 37.623160461708046, 55.801976332667685 ], [ 37.623556361708047, 55.802173332667685 ], [ 37.624027361708052, 55.802415332667685 ], [ 37.624426861708066, 55.802616632667686 ], [ 37.624864161708054, 55.802842732667685 ], [ 37.624996861708048, 55.802912832667687 ], [ 37.625327561708055, 55.803088432667685 ], [ 37.625752061708063, 55.803307232667684 ], [ 37.626089561708064, 55.803482132667689 ], [ 37.626247161708058, 55.803562932667688 ], [ 37.626879161708054, 55.803887532667687 ] ] } },
{ "type": "Feature", "properties": { "electrified": "contact_line", "frequency": "0", "gauge": "1067", "layer": "1", "maxspeed": "90", "name": "山手線", "name:de": "Yamanote-Linie", "name:en": "Yamanote Line", "name:ja": "山手線", "name:ja_rm": "Yamanote-sen", "operator": "東日本旅客鉄道", "operator:en": "East Japan Railway", "operator:ja": "東日本旅客鉄道", "operator:ja_rm": "Higashi-Nihon Ryokaku Tetsudō", "railway": "rail", "source": "Bing", "usage": "main", "voltage": "1500", "embankment": "yes" }, "geometry": { "type": "LineString", "coordinates": [ [ 37.637750661708061, 55.741190332667685 ], [ 37.637608861708067, 55.740866832667685 ], [ 37.637484761708045, 55.74062043266769 ], [ 37.637341161708044, 55.740385332667685 ], [ 37.637187761708056, 55.740182132667684 ], [ 37.636975261708052, 55.739939632667685 ], [ 37.636844461708058, 55.739810232667686 ], [ 37.636675861708063, 55.739658332667688 ], [ 37.636428161708047, 55.739461832667686 ] ] } },
{ "type": "Feature", "properties": { "bridge": "yes", "electrified": "contact_line", "frequency": "0", "gauge": "1067", "layer": "1", "maxspeed": "90", "name": "山手線", "name:de": "Yamanote-Linie", "name:en": "Yamanote Line", "name:ja": "山手線", "name:ja_rm": "Yamanote-sen", "operator": "東日本旅客鉄道", "operator:en": "East Japan Railway", "operator:ja": "東日本旅客鉄道", "operator:ja_rm": "Higashi-Nihon Ryokaku Tetsudō", "railway": "rail", "source": "Bing", "usage": "main", "voltage": "1500" }, "geometry": { "type": "LineString", "coordinates": [ [ 37.631157861708068, 55.733425032667689 ], [ 37.63106146170805, 55.733258832667687 ] ] } },
{ "type": "Feature", "properties": { "name": "大崎", "name:en": "Osaki", "name:ja": "大崎", "name:ja_rm": "Ōsaki", "operator": "東日本旅客鉃道", "name:ja_kana": "おおさき", "name:ru": "Осаки", "public_transport": "stop_position" }, "geometry": { "type": "Point", "coordinates": [ 139.728574, 35.6194332 ] } },
{ "type": "Feature", "properties": { "bridge": "yes", "electrified": "contact_line", "frequency": "0", "gauge": "1067", "layer": "1", "maxspeed": "90", "name": "山手線", "name:de": "Yamanote-Linie", "name:en": "Yamanote Line", "name:ja": "山手線", "name:ja_rm": "Yamanote-sen", "operator": "東日本旅客鉄道", "operator:en": "East Japan Railway", "operator:ja": "東日本旅客鉄道", "operator:ja_rm": "Higashi-Nihon Ryokaku Tetsudō", "railway": "rail", "source": "Bing", "usage": "main", "voltage": "1500", "name:ja_kana": "やまのてせん", "name:ru": "Линия JR Яманотэ", "railway:traffic_mode": "passenger" }, "geometry": { "type": "LineString", "coordinates": [ [ 37.576739961708064, 55.778439132667685 ], [ 37.576781061708068, 55.778562832667689 ] ] } },
{ "type": "Feature", "properties": { "electrified": "contact_line", "frequency": "0", "gauge": "1067", "maxspeed": "90", "name": "山手線", "name:de": "Yamanote-Linie", "name:en": "Yamanote Line", "name:es": "Línea Yamanote", "name:ja": "山手線", "name:ja_rm": "Yamanote-sen", "operator": "東日本旅客鉄道", "operator:en": "East Japan Railway", "operator:ja": "東日本旅客鉄道", "operator:ja_rm": "Higashi-Nihon Ryokaku Tetsudō", "railway": "rail", "source": "Bing", "usage": "main", "voltage": "1500", "name:ja_kana": "やまのてせん", "name:ru": "Линия JR Яманотэ", "railway:traffic_mode": "passenger" }, "geometry": { "type": "LineString", "coordinates": [ [ 37.575336161708044, 55.73614473266769 ], [ 37.575496261708061, 55.736529832667685 ], [ 37.575936261708058, 55.737711732667684 ], [ 37.576023861708059, 55.738000032667685 ], [ 37.576115861708054, 55.738272732667689 ], [ 37.576221761708048, 55.738596232667689 ], [ 37.576292861708062, 55.738834732667684 ], [ 37.576342661708061, 55.739072932667689 ], [ 37.576378961708066, 55.739333332667684 ], [ 37.576395661708069, 55.739579632667684 ], [ 37.576389561708062, 55.73986893266769 ], [ 37.576373161708069, 55.74015953266769 ], [ 37.576344961708067, 55.740599032667689 ], [ 37.57631666170807, 55.741031932667688 ], [ 37.576282661708071, 55.74144433266769 ], [ 37.57623576170807, 55.741840632667689 ], [ 37.576170761708063, 55.742229932667684 ], [ 37.576079661708071, 55.742595632667687 ], [ 37.575976061708054, 55.74298743266769 ], [ 37.575869961708044, 55.743383832667689 ], [ 37.575770561708062, 55.743736432667689 ], [ 37.57573516170806, 55.743868932667688 ] ] } },
{ "type": "Feature", "properties": { "electrified": "contact_line", "frequency": "0", "gauge": "1067", "layer": "1", "maxspeed": "90", "name": "山手線", "name:de": "Yamanote-Linie", "name:en": "Yamanote Line", "name:ja": "山手線", "name:ja_rm": "Yamanote-sen", "operator": "東日本旅客鉄道", "operator:en": "East Japan Railway", "operator:ja": "東日本旅客鉄道", "operator:ja_rm": "Higashi-Nihon Ryokaku Tetsudō", "railway": "rail", "source": "Bing", "usage": "main", "voltage": "1500", "embankment": "yes" }, "geometry": { "type": "LineString", "coordinates": [ [ 37.646893861708044, 55.769662132667683 ], [ 37.646874361708065, 55.769538432667687 ], [ 37.646791561708064, 55.769045932667687 ], [ 37.646749361708068, 55.768795332667686 ] ] } },
{ "type": "Feature", "properties": { "name": "御徒町", "name:en": "Okachimachi", "name:ja": "御徒町", "name:ja_rm": "Okachimachi", "name:ja_kana": "おかちまち", "name:ru": "Окатимати", "name:ko": "오카치마치", "public_transport": "stop_position", "train": "yes" }, "geometry": { "type": "Point", "coordinates": [ 139.774650400000013, 35.7069502 ] } },
{ "type": "Feature", "properties": { "electrified": "contact_line", "frequency": "0", "gauge": "1067", "maxspeed": "90", "name": "山手線", "name:de": "Yamanote-Linie", "name:en": "Yamanote Line", "name:es": "Línea Yamanote", "name:ja": "山手線", "name:ja_rm": "Yamanote-sen", "operator": "東日本旅客鉄道", "operator:en": "East Japan Railway", "operator:ja": "東日本旅客鉄道", "operator:ja_rm": "Higashi-Nihon Ryokaku Tetsudō", "railway": "rail", "source": "Bing", "usage": "main", "voltage": "1500", "name:ja_kana": "やまのてせん", "name:ru": "Линия JR Яманотэ", "railway:traffic_mode": "passenger" }, "geometry": { "type": "LineString", "coordinates": [ [ 37.584438861708044, 55.796038832667683 ], [ 37.58461206170805, 55.796293132667685 ], [ 37.584806961708047, 55.796567932667685 ], [ 37.584968761708048, 55.796781532667687 ], [ 37.585143061708045, 55.796984132667689 ], [ 37.585280961708044, 55.79712473266769 ], [ 37.58542336170806, 55.797247732667685 ], [ 37.585698061708065, 55.797463232667688 ], [ 37.586094561708059, 55.797724132667689 ], [ 37.586334961708054, 55.797861932667686 ], [ 37.586616461708054, 55.797984932667688 ], [ 37.58710786170807, 55.798138132667688 ], [ 37.587418661708064, 55.798222632667688 ], [ 37.587688661708064, 55.798286432667688 ], [ 37.587967561708048, 55.798340632667689 ], [ 37.588498961708048, 55.79841733266769 ], [ 37.588799661708045, 55.798436332667684 ], [ 37.589069761708068, 55.798443732667685 ], [ 37.589288561708067, 55.798436332667684 ], [ 37.589517561708057, 55.798421532667689 ], [ 37.589737461708047, 55.798401132667685 ], [ 37.589955161708055, 55.798365132667683 ], [ 37.590283261708045, 55.798309632667689 ], [ 37.590655861708065, 55.798214332667683 ], [ 37.590709861708071, 55.798200032667687 ], [ 37.590969261708047, 55.798131132667685 ], [ 37.592228361708045, 55.797794432667686 ], [ 37.593708761708065, 55.797401432667684 ], [ 37.594626561708061, 55.797159132667687 ], [ 37.595211161708058, 55.796996732667687 ], [ 37.595700661708044, 55.796867632667684 ], [ 37.596579461708053, 55.796627532667685 ], [ 37.598502961708057, 55.796129832667688 ], [ 37.598980561708068, 55.796014832667687 ], [ 37.599754461708052, 55.79583263266769 ], [ 37.600779361708057, 55.795567632667684 ], [ 37.601037661708069, 55.795500832667685 ] ] } },
{ "type": "Feature", "properties": { "bridge": "yes", "electrified": "contact_line", "frequency": "0", "gauge": "1067", "layer": "1", "maxspeed": "90", "name": "山手線", "name:de": "Yamanote-Linie", "name:en": "Yamanote Line", "name:ja": "山手線", "name:ja_rm": "Yamanote-sen", "operator": "東日本旅客鉄道", "operator:en": "East Japan Railway", "operator:ja": "東日本旅客鉄道", "operator:ja_rm": "Higashi-Nihon Ryokaku Tetsudō", "railway": "rail", "source": "Bing", "usage": "main", "voltage": "1500" }, "geometry": { "type": "LineString", "coordinates": [ [ 37.633977061708045, 55.737566432667684 ], [ 37.633884961708056, 55.73748853266769 ], [ 37.63374526170805, 55.73737173266769 ] ] } },
{ "type": "Feature", "properties": { "bridge": "yes", "electrified": "contact_line", "frequency": "0", "gauge": "1067", "layer": "1", "maxspeed": "90", "name": "山手線", "name:de": "Yamanote-Linie", "name:en": "Yamanote Line", "name:es": "Línea Yamanote", "name:ja": "山手線", "name:ja_rm": "Yamanote-sen", "operator": "東日本旅客鉄道", "operator:en": "East Japan Railway", "operator:ja": "東日本旅客鉄道", "operator:ja_rm": "Higashi-Nihon Ryokaku Tetsudō", "railway": "rail", "source": "Bing", "usage": "main", "voltage": "1500", "name:ja_kana": "やまのてせん", "name:ru": "Линия JR Яманотэ", "railway:traffic_mode": "passenger" }, "geometry": { "type": "LineString", "coordinates": [ [ 37.592633961708067, 55.692458532667686 ], [ 37.59214306170805, 55.69267773266769 ] ] } },
{ "type": "Feature", "properties": { "bridge": "viaduct", "electrified": "contact_line", "frequency": "0", "gauge": "1067", "layer": "1", "maxspeed": "90", "name": "山手線", "name:de": "Yamanote-Linie", "name:en": "Yamanote Line", "name:ja": "山手線", "name:ja_rm": "Yamanote-sen", "operator": "東日本旅客鉄道", "operator:en": "East Japan Railway", "operator:ja": "東日本旅客鉄道", "operator:ja_rm": "Higashi-Nihon Ryokaku Tetsudō", "railway": "rail", "source": "Bing", "usage": "main", "voltage": "1500" }, "geometry": { "type": "LineString", "coordinates": [ [ 37.642469361708045, 55.753227532667687 ], [ 37.642422561708067, 55.753104532667685 ] ] } },
{ "type": "Feature", "properties": { "electrified": "contact_line", "frequency": "0", "gauge": "1067", "layer": "1", "maxspeed": "90", "name": "山手線", "name:de": "Yamanote-Linie", "name:en": "Yamanote Line", "name:ja": "山手線", "name:ja_rm": "Yamanote-sen", "operator": "東日本旅客鉄道", "operator:en": "East Japan Railway", "operator:ja": "東日本旅客鉄道", "operator:ja_rm": "Higashi-Nihon Ryokaku Tetsudō", "railway": "rail", "source": "Bing", "usage": "main", "voltage": "1500", "name:ja_kana": "やまのてせん", "name:ru": "Линия JR Яманотэ", "railway:traffic_mode": "passenger" }, "geometry": { "type": "LineString", "coordinates": [ [ 37.577651361708071, 55.78130573266769 ], [ 37.577965661708056, 55.782350232667689 ], [ 37.578207861708059, 55.783068632667685 ], [ 37.578387261708066, 55.783662732667686 ], [ 37.578593361708052, 55.784294232667683 ], [ 37.578769461708056, 55.78481163266769 ], [ 37.578846061708056, 55.784989832667684 ], [ 37.578932261708054, 55.78519043266769 ], [ 37.579166961708047, 55.785660132667687 ], [ 37.57951366170807, 55.786306932667685 ], [ 37.580294161708061, 55.787803632667689 ], [ 37.580635261708046, 55.788446232667688 ], [ 37.580788161708064, 55.788740432667687 ], [ 37.580988961708051, 55.789115132667689 ], [ 37.58118526170805, 55.789503032667689 ], [ 37.581347961708055, 55.789837332667688 ], [ 37.58151686170806, 55.790183432667689 ], [ 37.581710061708044, 55.79055923266769 ], [ 37.581910161708045, 55.790939132667688 ] ] } },
{ "type": "Feature", "properties": { "bridge": "yes", "electrified": "contact_line", "frequency": "0", "gauge": "1067", "layer": "1", "maxspeed": "90", "name": "山手線", "name:de": "Yamanote-Linie", "name:en": "Yamanote Line", "name:es": "Línea Yamanote", "name:ja": "山手線", "name:ja_rm": "Yamanote-sen", "operator": "東日本旅客鉄道", "operator:en": "East Japan Railway", "operator:ja": "東日本旅客鉄道", "operator:ja_rm": "Higashi-Nihon Ryokaku Tetsudō", "railway": "rail", "source": "Bing", "usage": "main", "voltage": "1500", "name:ja_kana": "やまのてせん", "name:ru": "Линия JR Яманотэ", "railway:traffic_mode": "passenger" }, "geometry": { "type": "LineString", "coordinates": [ [ 37.573597661708057, 55.723104432667689 ], [ 37.573576761708047, 55.723387932667684 ] ] } },
{ "type": "Feature", "properties": { "name": "池袋", "name:en": "Ikebukuro", "name:ja": "池袋", "name:ja_rm": "Ikebukuro", "name:ja_kana": "いけぶくろ", "name:ru": "Икебукуро", "public_transport": "stop_position", "train": "yes" }, "geometry": { "type": "Point", "coordinates": [ 139.710826200000014, 35.7303007 ] } },
{ "type": "Feature", "properties": { "name": "田町", "name:en": "Tamachi", "name:ja": "田町", "name:ja_rm": "Tamachi", "name:ja_kana": "たまち", "name:ru": "Тамати", "public_transport": "stop_position", "train": "yes", "name:fr": "Tamachi" }, "geometry": { "type": "Point", "coordinates": [ 139.7476929, 35.6457223 ] } },
{ "type": "Feature", "properties": { "bridge": "yes", "electrified": "contact_line", "frequency": "0", "gauge": "1067", "layer": "1", "maxspeed": "90", "name": "山手線", "name:de": "Yamanote-Linie", "name:en": "Yamanote Line", "name:es": "Línea Yamanote", "name:ja": "山手線", "name:ja_rm": "Yamanote-sen", "operator": "東日本旅客鉄道", "operator:en": "East Japan Railway", "operator:ja": "東日本旅客鉄道", "operator:ja_rm": "Higashi-Nihon Ryokaku Tetsudō", "railway": "rail", "source": "Bing", "usage": "main", "voltage": "1500", "name:ja_kana": "やまのてせん", "name:ru": "Линия JR Яманотэ", "railway:traffic_mode": "passenger" }, "geometry": { "type": "LineString", "coordinates": [ [ 37.580232761708068, 55.714531032667686 ], [ 37.580164061708054, 55.714637932667685 ] ] } },
{ "type": "Feature", "properties": { "electrified": "contact_line", "frequency": "0", "gauge": "1067", "layer": "1", "name": "山手線", "name:en": "Yamanote Line", "name:es": "Línea Yamanote", "name:ja": "山手線", "name:ja_rm": "Yamanote-sen", "operator": "東日本旅客鉄道", "operator:en": "East Japan Railway", "operator:ja": "東日本旅客鉄道", "operator:ja_rm": "Higashi-Nihon Ryokaku Tetsudō", "railway": "rail", "source": "Bing", "voltage": "1500", "name:ja_kana": "やまのてせん", "name:ru": "Линия JR Яманотэ", "railway:traffic_mode": "passenger", "service": "siding" }, "geometry": { "type": "LineString", "coordinates": [ [ 37.582752361708067, 55.792777232667689 ], [ 37.582898261708046, 55.793116732667684 ], [ 37.583028161708064, 55.793376632667687 ], [ 37.583378561708066, 55.79404443266769 ], [ 37.584114161708051, 55.79544593266769 ], [ 37.584438861708044, 55.796038832667683 ] ] } },
{ "type": "Feature", "properties": { "name": "池袋", "name:en": "Ikebukuro", "name:ja": "池袋", "name:ja_rm": "Ikebukuro", "name:ja_kana": "いけぶくろ", "name:ru": "Икебукуро", "public_transport": "stop_position", "train": "yes" }, "geometry": { "type": "Point", "coordinates": [ 139.7109565, 35.7302577 ] } },
{ "type": "Feature", "properties": { "electrified": "contact_line", "frequency": "0", "gauge": "1067", "layer": "1", "maxspeed": "90", "name": "山手線", "name:de": "Yamanote-Linie", "name:en": "Yamanote Line", "name:ja": "山手線", "name:ja_rm": "Yamanote-sen", "operator": "東日本旅客鉄道", "operator:en": "East Japan Railway", "operator:ja": "東日本旅客鉄道", "operator:ja_rm": "Higashi-Nihon Ryokaku Tetsudō", "railway": "rail", "source": "Bing", "usage": "main", "voltage": "1500", "name:ja_kana": "やまのてせん", "name:ru": "Линия JR Яманотэ", "railway:traffic_mode": "passenger" }, "geometry": { "type": "LineString", "coordinates": [ [ 37.577053661708057, 55.779348132667685 ], [ 37.577186961708044, 55.779755232667689 ] ] } },
{ "type": "Feature", "properties": { "bridge": "viaduct", "electrified": "contact_line", "frequency": "0", "gauge": "1067", "layer": "1", "maxspeed": "90", "name": "山手線", "name:de": "Yamanote-Linie", "name:en": "Yamanote Line", "name:es": "Línea Yamanote", "name:ja": "山手線", "name:ja_rm": "Yamanote-sen", "operator": "東日本旅客鉄道", "operator:en": "East Japan Railway", "operator:ja": "東日本旅客鉄道", "operator:ja_rm": "Higashi-Nihon Ryokaku Tetsudō", "railway": "rail", "source": "Bing", "usage": "main", "voltage": "1500" }, "geometry": { "type": "LineString", "coordinates": [ [ 37.630899861708066, 55.727840032667686 ], [ 37.630914361708058, 55.727741532667686 ], [ 37.630929461708071, 55.727660132667687 ], [ 37.630979361708064, 55.727294432667684 ] ] } },
{ "type": "Feature", "properties": { "bridge": "yes", "electrified": "contact_line", "frequency": "0", "gauge": "1067", "layer": "1", "maxspeed": "90", "name": "山手線", "name:de": "Yamanote-Linie", "name:en": "Yamanote Line", "name:ja": "山手線", "name:ja_rm": "Yamanote-sen", "operator": "東日本旅客鉄道", "operator:en": "East Japan Railway", "operator:ja": "東日本旅客鉄道", "operator:ja_rm": "Higashi-Nihon Ryokaku Tetsudō", "railway": "rail", "source": "Bing", "usage": "main", "voltage": "1500" }, "geometry": { "type": "LineString", "coordinates": [ [ 37.630542461708053, 55.732102732667684 ], [ 37.630497761708064, 55.731883532667688 ] ] } },
{ "type": "Feature", "properties": { "name": "秋葉原", "name:en": "Akihabara", "name:es": "Akihabara", "name:ja": "秋葉原", "name:ja_rm": "Akihabara", "name:ja_kana": "あきはばら", "name:ru": "Акихабара", "name:ko": "아키하바라", "public_transport": "stop_position", "train": "yes" }, "geometry": { "type": "Point", "coordinates": [ 139.7730593, 35.6983648 ] } },
{ "type": "Feature", "properties": { "bridge": "viaduct", "electrified": "contact_line", "frequency": "0", "gauge": "1067", "layer": "1", "maxspeed": "90", "name": "山手線", "name:de": "Yamanote-Linie", "name:en": "Yamanote Line", "name:ja": "山手線", "name:ja_rm": "Yamanote-sen", "operator": "東日本旅客鉄道", "operator:en": "East Japan Railway", "operator:ja": "東日本旅客鉄道", "operator:ja_rm": "Higashi-Nihon Ryokaku Tetsudō", "railway": "rail", "source": "Bing", "usage": "main", "voltage": "1500" }, "geometry": { "type": "LineString", "coordinates": [ [ 37.642348361708066, 55.752934632667689 ], [ 37.642269061708056, 55.752746632667687 ] ] } },
{ "type": "Feature", "properties": { "name": "原宿", "name:en": "Harajuku", "name:es": "Harajuku", "name:ja": "原宿", "name:ja_rm": "Harajuku", "name:ja_kana": "はらじゅく", "name:ru": "Харадзюку", "public_transport": "stop_position", "train": "yes", "name:fr": "Harajuku", "name:zh": "原宿" }, "geometry": { "type": "Point", "coordinates": [ 139.7028783, 35.6722605 ] } },
{ "type": "Feature", "properties": { "electrified": "contact_line", "frequency": "0", "gauge": "1067", "maxspeed": "90", "name": "山手線", "name:de": "Yamanote-Linie", "name:en": "Yamanote Line", "name:ja": "山手線", "name:ja_rm": "Yamanote-sen", "operator": "東日本旅客鉄道", "operator:en": "East Japan Railway", "operator:ja": "東日本旅客鉄道", "operator:ja_rm": "Higashi-Nihon Ryokaku Tetsudō", "railway": "rail", "source": "Bing", "usage": "main", "voltage": "1500", "name:ja_kana": "やまのてせん", "name:ko": "야마노테선" }, "geometry": { "type": "LineString", "coordinates": [ [ 37.613326061708058, 55.702532532667689 ], [ 37.613276661708063, 55.70243893266769 ], [ 37.613000561708056, 55.701936432667686 ], [ 37.612499761708058, 55.701022732667688 ], [ 37.611667161708063, 55.699518932667686 ], [ 37.611469561708056, 55.69912703266769 ], [ 37.611302761708068, 55.698730432667688 ], [ 37.61115256170806, 55.698331832667684 ], [ 37.610900761708059, 55.697540032667689 ], [ 37.610812961708071, 55.697188532667688 ], [ 37.610732661708063, 55.69650893266769 ], [ 37.61073576170805, 55.695837432667687 ], [ 37.610766561708068, 55.695432932667686 ], [ 37.610793061708058, 55.695013932667685 ], [ 37.610818161708046, 55.694256832667683 ], [ 37.610857261708055, 55.693450232667686 ], [ 37.610881961708067, 55.693108032667688 ], [ 37.610884261708044, 55.693076532667689 ], [ 37.610928561708057, 55.692447532667686 ], [ 37.610994061708062, 55.691516932667689 ], [ 37.611048761708055, 55.690761332667684 ], [ 37.611126461708047, 55.690282332667685 ], [ 37.61116326170805, 55.689923032667686 ], [ 37.61117506170806, 55.689699432667688 ], [ 37.611162161708059, 55.689187932667686 ], [ 37.611120861708066, 55.688848632667685 ], [ 37.611065761708069, 55.688540632667689 ], [ 37.610957661708063, 55.688068532667685 ], [ 37.610875261708067, 55.687765632667684 ], [ 37.610787561708044, 55.687411832667685 ], [ 37.610505361708057, 55.686368032667687 ], [ 37.610176061708053, 55.685179732667685 ], [ 37.610065761708064, 55.68478193266769 ], [ 37.609786761708058, 55.683781832667684 ], [ 37.609692861708062, 55.683426932667686 ], [ 37.609542361708044, 55.683030532667686 ], [ 37.609430561708059, 55.682798432667688 ], [ 37.609249861708044, 55.682488432667689 ], [ 37.608949861708062, 55.682110732667688 ], [ 37.608786261708055, 55.681943432667687 ], [ 37.60860616170806, 55.68177833266769 ], [ 37.608401561708071, 55.681610232667687 ], [ 37.608196961708053, 55.68145723266769 ], [ 37.607983961708051, 55.681318232667685 ], [ 37.607824961708054, 55.681226532667687 ], [ 37.607718561708062, 55.681170332667683 ], [ 37.607602161708066, 55.681113432667686 ] ] } },
{ "type": "Feature", "properties": { "bridge": "yes", "electrified": "contact_line", "frequency": "0", "gauge": "1067", "layer": "1", "maxspeed": "90", "name": "山手線", "name:de": "Yamanote-Linie", "name:en": "Yamanote Line", "name:es": "Línea Yamanote", "name:ja": "山手線", "name:ja_rm": "Yamanote-sen", "operator": "東日本旅客鉄道", "operator:en": "East Japan Railway", "operator:ja": "東日本旅客鉄道", "operator:ja_rm": "Higashi-Nihon Ryokaku Tetsudō", "railway": "rail", "source": "Bing", "usage": "main", "voltage": "1500" }, "geometry": { "type": "LineString", "coordinates": [ [ 37.630455361708051, 55.731579232667684 ], [ 37.630428961708056, 55.731180932667684 ] ] } },
{ "type": "Feature", "properties": { "electrified": "contact_line", "frequency": "0", "gauge": "1067", "layer": "1", "maxspeed": "90", "name": "山手線", "name:de": "Yamanote-Linie", "name:en": "Yamanote Line", "name:es": "JR Yamanote", "name:ja": "山手線", "name:ja_rm": "Yamanote-sen", "operator": "東日本旅客鉄道", "operator:en": "East Japan Railway", "operator:ja": "東日本旅客鉄道", "operator:ja_rm": "Higashi-Nihon Ryokaku Tetsudō", "railway": "rail", "source": "Bing", "usage": "main", "voltage": "1500", "name:ru": "Линия JR Яманотэ", "name:ko": "야마노테선", "embankment": "yes", "railway:track_ref": "5" }, "geometry": { "type": "LineString", "coordinates": [ [ 37.640262561708063, 55.747842032667684 ], [ 37.639992561708063, 55.747187032667689 ], [ 37.639905361708067, 55.747007632667689 ], [ 37.639790961708066, 55.746772132667687 ], [ 37.639631761708053, 55.746438532667689 ], [ 37.639592461708055, 55.746356232667686 ], [ 37.639481261708063, 55.74613943266769 ], [ 37.639374361708072, 55.745906332667687 ], [ 37.639307761708046, 55.745765032667684 ], [ 37.639031561708045, 55.745030732667686 ], [ 37.638749861708057, 55.744287832667688 ], [ 37.63867926170807, 55.744088232667686 ], [ 37.638604361708055, 55.743844032667688 ], [ 37.638533261708069, 55.743538232667689 ], [ 37.638409661708046, 55.74296313266769 ], [ 37.638304861708072, 55.742634032667688 ], [ 37.638164161708069, 55.742277532667686 ], [ 37.637877961708064, 55.741512632667686 ] ] } },
{ "type": "Feature", "properties": { "bridge": "viaduct", "electrified": "contact_line", "frequency": "0", "gauge": "1067", "layer": "1", "maxspeed": "90", "name": "山手線", "name:de": "Yamanote-Linie", "name:en": "Yamanote Line", "name:ja": "山手線", "name:ja_rm": "Yamanote-sen", "operator": "東日本旅客鉄道", "operator:en": "East Japan Railway", "operator:ja": "東日本旅客鉄道", "operator:ja_rm": "Higashi-Nihon Ryokaku Tetsudō", "railway": "rail", "source": "Bing", "usage": "main", "voltage": "1500" }, "geometry": { "type": "LineString", "coordinates": [ [ 37.642205461708052, 55.752595832667687 ], [ 37.642173661708064, 55.752520532667688 ], [ 37.641995761708053, 55.752095932667686 ], [ 37.641973161708059, 55.752041432667689 ] ] } },
{ "type": "Feature", "properties": { "electrified": "contact_line", "frequency": "0", "gauge": "1067", "maxspeed": "90", "name": "山手線", "name:de": "Yamanote-Linie", "name:en": "Yamanote Line", "name:es": "Línea Yamanote", "name:ja": "山手線", "name:ja_rm": "Yamanote-sen", "operator": "東日本旅客鉄道", "operator:en": "East Japan Railway", "operator:ja": "東日本旅客鉄道", "operator:ja_rm": "Higashi-Nihon Ryokaku Tetsudō", "railway": "rail", "source": "Bing", "usage": "main", "voltage": "1500", "name:ja_kana": "やまのてせん", "name:ru": "Линия JR Яманотэ", "railway:traffic_mode": "passenger" }, "geometry": { "type": "LineString", "coordinates": [ [ 37.59938696170807, 55.685530832667688 ], [ 37.598717961708054, 55.686407532667687 ], [ 37.598447561708049, 55.686751532667685 ], [ 37.598416561708071, 55.686792232667685 ], [ 37.598136561708067, 55.687165532667684 ], [ 37.59800406170806, 55.687334832667688 ], [ 37.597550661708063, 55.687935332667685 ] ] } },
{ "type": "Feature", "properties": { "name": "巣鴨", "name:en": "Sugamo", "name:ja": "巣鴨", "name:ja_rm": "Sugamo", "name:ja_kana": "すがも", "name:ru": "Сугамо", "public_transport": "stop_position", "train": "yes" }, "geometry": { "type": "Point", "coordinates": [ 139.7394013, 35.7334579 ] } },
{ "type": "Feature", "properties": { "bridge": "yes", "electrified": "contact_line", "frequency": "0", "gauge": "1067", "layer": "1", "maxspeed": "90", "name": "山手線", "name:de": "Yamanote-Linie", "name:en": "Yamanote Line", "name:es": "Línea Yamanote", "name:ja": "山手線", "name:ja_rm": "Yamanote-sen", "operator": "東日本旅客鉄道", "operator:en": "East Japan Railway", "operator:ja": "東日本旅客鉄道", "operator:ja_rm": "Higashi-Nihon Ryokaku Tetsudō", "railway": "rail", "source": "Bing", "usage": "main", "voltage": "1500" }, "geometry": { "type": "LineString", "coordinates": [ [ 37.646336661708069, 55.766712032667684 ], [ 37.646246261708065, 55.766443432667685 ] ] } },
{ "type": "Feature", "properties": { "bridge": "yes", "electrified": "contact_line", "frequency": "0", "gauge": "1067", "layer": "1", "maxspeed": "90", "name": "山手線 (Yamanote Line)", "name:de": "Yamanote-Linie", "name:en": "Yamanote Line", "name:ja": "山手線", "name:ja_rm": "Yamanote-sen", "operator": "東日本旅客鉄道", "operator:en": "East Japan Railway", "operator:ja": "東日本旅客鉄道", "operator:ja_rm": "Higashi-Nihon Ryokaku Tetsudō", "railway": "rail", "source": "Bing", "usage": "main", "voltage": "1500" }, "geometry": { "type": "LineString", "coordinates": [ [ 37.628963261708044, 55.716868232667686 ], [ 37.628886861708061, 55.716594632667686 ] ] } },
{ "type": "Feature", "properties": { "bridge": "yes", "electrified": "contact_line", "frequency": "0", "gauge": "1067", "layer": "1", "maxspeed": "90", "name": "山手線 (Yamanote Line)", "name:de": "Yamanote-Linie", "name:en": "Yamanote Line", "name:ja": "山手線", "name:ja_rm": "Yamanote-sen", "operator": "東日本旅客鉄道", "operator:en": "East Japan Railway", "operator:ja": "東日本旅客鉄道", "operator:ja_rm": "Higashi-Nihon Ryokaku Tetsudō", "railway": "rail", "source": "Bing", "usage": "main", "voltage": "1500" }, "geometry": { "type": "LineString", "coordinates": [ [ 37.626455361708061, 55.712813732667684 ], [ 37.626090561708061, 55.712529432667687 ] ] } },
{ "type": "Feature", "properties": { "bridge": "yes", "electrified": "contact_line", "frequency": "0", "gauge": "1067", "layer": "1", "maxspeed": "90", "name": "山手線", "name:de": "Yamanote-Linie", "name:en": "Yamanote Line", "name:ja": "山手線", "name:ja_rm": "Yamanote-sen", "operator": "東日本旅客鉄道", "operator:en": "East Japan Railway", "operator:ja": "東日本旅客鉄道", "operator:ja_rm": "Higashi-Nihon Ryokaku Tetsudō", "railway": "rail", "source": "Bing", "usage": "main", "voltage": "1500", "name:ja_kana": "やまのてせん", "name:ru": "Линия JR Яманотэ", "railway:traffic_mode": "passenger" }, "geometry": { "type": "LineString", "coordinates": [ [ 37.581910161708045, 55.790939132667688 ], [ 37.582063961708066, 55.791228932667686 ] ] } },
{ "type": "Feature", "properties": { "bridge": "yes", "electrified": "contact_line", "frequency": "0", "gauge": "1067", "layer": "1", "maxspeed": "90", "name": "山手線", "name:de": "Yamanote-Linie", "name:en": "Yamanote Line", "name:ja": "山手線", "name:ja_rm": "Yamanote-sen", "operator": "東日本旅客鉄道", "operator:en": "East Japan Railway", "operator:ja": "東日本旅客鉄道", "operator:ja_rm": "Higashi-Nihon Ryokaku Tetsudō", "railway": "rail", "source": "Bing", "usage": "main", "voltage": "1500", "name:ja_kana": "やまのてせん", "name:ru": "Линия JR Яманотэ", "railway:traffic_mode": "passenger", "alt_name": "代々木街道架道橋" }, "geometry": { "type": "LineString", "coordinates": [ [ 37.57474196170805, 55.746694132667685 ], [ 37.574708561708071, 55.746772932667689 ] ] } },
{ "type": "Feature", "properties": { "bridge": "yes", "electrified": "contact_line", "frequency": "0", "gauge": "1067", "layer": "1", "maxspeed": "90", "name": "山手線", "name:de": "Yamanote-Linie", "name:en": "Yamanote Line", "name:ja": "山手線", "name:ja_rm": "Yamanote-sen", "operator": "東日本旅客鉄道", "operator:en": "East Japan Railway", "operator:ja": "東日本旅客鉄道", "operator:ja_rm": "Higashi-Nihon Ryokaku Tetsudō", "railway": "rail", "source": "Bing", "usage": "main", "voltage": "1500", "name:ja_kana": "やまのてせん", "name:ru": "Линия JR Яманотэ", "railway:traffic_mode": "passenger", "alt_name": "裏参道架道橋" }, "geometry": { "type": "LineString", "coordinates": [ [ 37.57573516170806, 55.743868932667688 ], [ 37.57568586170806, 55.744043732667684 ] ] } },
{ "type": "Feature", "properties": { "name": "恵比寿", "name:en": "Ebisu", "name:ja": "恵比寿", "name:ja_rm": "Ebisu", "name:ja_kana": "えびす", "name:ru": "Эбису", "public_transport": "stop_position", "train": "yes", "name:fr": "Gare d'Ebisu" }, "geometry": { "type": "Point", "coordinates": [ 139.7100673, 35.6463903 ] } },
{ "type": "Feature", "properties": { "electrified": "contact_line", "frequency": "0", "gauge": "1067", "maxspeed": "90", "name": "山手線", "name:de": "Yamanote-Linie", "name:en": "Yamanote Line", "name:ja": "山手線", "name:ja_rm": "Yamanote-sen", "operator": "東日本旅客鉄道", "operator:en": "East Japan Railway", "operator:ja": "東日本旅客鉄道", "operator:ja_rm": "Higashi-Nihon Ryokaku Tetsudō", "railway": "rail", "source": "Bing", "usage": "main", "voltage": "1500", "name:ja_kana": "やまのてせん", "name:ru": "Линия JR Яманотэ", "railway:traffic_mode": "passenger" }, "geometry": { "type": "LineString", "coordinates": [ [ 37.597304261708054, 55.688283432667689 ], [ 37.597128161708049, 55.688508732667685 ], [ 37.596934761708049, 55.688758132667687 ], [ 37.596582161708064, 55.689219032667687 ], [ 37.596529661708054, 55.689288532667689 ] ] } },
{ "type": "Feature", "properties": { "name": "高田馬場", "name:en": "Takadanobaba", "name:es": "Takadanobaba", "name:ja": "高田馬場", "name:ja_rm": "Takadanobaba", "name:ja_kana": "たかだのばば", "name:ru": "Такаданобаба", "public_transport": "stop_position", "train": "yes" }, "geometry": { "type": "Point", "coordinates": [ 139.703568499999989, 35.7126995 ] } },
{ "type": "Feature", "properties": { "electrified": "contact_line", "frequency": "0", "gauge": "1067", "layer": "-1", "maxspeed": "90", "name": "山手線", "name:de": "Yamanote-Linie", "name:en": "Yamanote Line", "name:ja": "山手線", "name:ja_rm": "Yamanote-sen", "operator": "東日本旅客鉄道", "operator:en": "East Japan Railway", "operator:ja": "東日本旅客鉄道", "operator:ja_rm": "Higashi-Nihon Ryokaku Tetsudō", "railway": "rail", "source": "Bing", "usage": "main", "voltage": "1500", "name:ja_kana": "やまのてせん", "name:ru": "Линия JR Яманотэ", "railway:traffic_mode": "passenger", "tunnel": "yes" }, "geometry": { "type": "LineString", "coordinates": [ [ 37.61160976170806, 55.797147932667684 ], [ 37.611823361708055, 55.797244632667685 ], [ 37.612108161708058, 55.797373632667686 ] ] } },
{ "type": "Feature", "properties": { "bridge": "yes", "electrified": "contact_line", "frequency": "0", "gauge": "1067", "layer": "1", "maxspeed": "90", "name": "山手線", "name:de": "Yamanote-Linie", "name:en": "Yamanote Line", "name:ja": "山手線", "name:ja_rm": "Yamanote-sen", "operator": "東日本旅客鉄道", "operator:en": "East Japan Railway", "operator:ja": "東日本旅客鉄道", "operator:ja_rm": "Higashi-Nihon Ryokaku Tetsudō", "railway": "rail", "source": "Bing", "usage": "main", "voltage": "1500", "name:ja_kana": "やまのてせん", "name:ru": "Линия JR Яманотэ", "railway:traffic_mode": "passenger" }, "geometry": { "type": "LineString", "coordinates": [ [ 37.577606561708059, 55.781156832667683 ], [ 37.577651361708071, 55.78130573266769 ] ] } },
{ "type": "Feature", "properties": { "electrified": "contact_line", "frequency": "0", "gauge": "1067", "layer": "1", "maxspeed": "90", "name": "山手線 (Yamanote Line)", "name:de": "Yamanote-Linie", "name:en": "Yamanote Line", "name:ja": "山手線", "name:ja_rm": "Yamanote-sen", "operator": "東日本旅客鉄道", "operator:en": "East Japan Railway", "operator:ja": "東日本旅客鉄道", "operator:ja_rm": "Higashi-Nihon Ryokaku Tetsudō", "railway": "rail", "source": "Bing", "usage": "main", "voltage": "1500", "name:zh": "山手線" }, "geometry": { "type": "LineString", "coordinates": [ [ 37.629839761708048, 55.72014403266769 ], [ 37.629501361708044, 55.718896032667686 ], [ 37.629431261708056, 55.718637232667689 ], [ 37.629359261708068, 55.718360432667687 ], [ 37.629093061708069, 55.717344432667687 ], [ 37.628963261708044, 55.716868232667686 ] ] } },
{ "type": "Feature", "properties": { "electrified": "contact_line", "frequency": "0", "gauge": "1067", "layer": "1", "maxspeed": "90", "name": "山手線", "name:de": "Yamanote-Linie", "name:en": "Yamanote Line", "name:ja": "山手線", "name:ja_rm": "Yamanote-sen", "operator": "東日本旅客鉄道", "operator:en": "East Japan Railway", "operator:ja": "東日本旅客鉄道", "operator:ja_rm": "Higashi-Nihon Ryokaku Tetsudō", "railway": "rail", "source": "Bing", "usage": "main", "voltage": "1500", "embankment": "yes" }, "geometry": { "type": "LineString", "coordinates": [ [ 37.632532861708064, 55.735859232667686 ], [ 37.632268961708071, 55.735410632667687 ], [ 37.631869361708063, 55.734699132667686 ], [ 37.63141796170806, 55.733873032667688 ], [ 37.631157861708068, 55.733425032667689 ] ] } },
{ "type": "Feature", "properties": { "electrified": "contact_line", "frequency": "0", "gauge": "1067", "layer": "1", "maxspeed": "90", "name": "山手線", "name:de": "Yamanote-Linie", "name:en": "Yamanote Line", "name:ja": "山手線", "name:ja_rm": "Yamanote-sen", "operator": "東日本旅客鉄道", "operator:en": "East Japan Railway", "operator:ja": "東日本旅客鉄道", "operator:ja_rm": "Higashi-Nihon Ryokaku Tetsudō", "railway": "rail", "source": "Bing", "usage": "main", "voltage": "1500", "name:ja_kana": "やまのてせん", "name:ko": "야마노테선" }, "geometry": { "type": "LineString", "coordinates": [ [ 37.607090161708051, 55.680913832667684 ], [ 37.606853261708046, 55.680843632667688 ], [ 37.606632361708058, 55.680788132667686 ], [ 37.606396761708062, 55.680737132667687 ], [ 37.606267661708053, 55.680712732667686 ], [ 37.606135661708045, 55.680689632667686 ] ] } },
{ "type": "Feature", "properties": { "bridge": "yes", "electrified": "contact_line", "frequency": "0", "gauge": "1067", "maxspeed": "90", "name": "山手線 (Yamanote Line)", "name:de": "Yamanote-Linie", "name:en": "Yamanote Line", "name:ja": "山手線", "name:ja_rm": "Yamanote-sen", "operator": "東日本旅客鉄道", "operator:en": "East Japan Railway", "operator:ja": "東日本旅客鉄道", "operator:ja_rm": "Higashi-Nihon Ryokaku Tetsudō", "railway": "rail", "source": "Bing", "usage": "main", "voltage": "1500" }, "geometry": { "type": "LineString", "coordinates": [ [ 37.613387661708067, 55.702649232667689 ], [ 37.613326061708058, 55.702532532667689 ] ] } },
{ "type": "Feature", "properties": { "bridge": "viaduct", "electrified": "contact_line", "frequency": "0", "gauge": "1067", "layer": "1", "maxspeed": "90", "name": "山手線", "name:de": "Yamanote-Linie", "name:en": "Yamanote Line", "name:ja": "山手線", "name:ja_rm": "Yamanote-sen", "operator": "東日本旅客鉄道", "operator:en": "East Japan Railway", "operator:ja": "東日本旅客鉄道", "operator:ja_rm": "Higashi-Nihon Ryokaku Tetsudō", "railway": "rail", "source": "Bing", "usage": "main", "voltage": "1500" }, "geometry": { "type": "LineString", "coordinates": [ [ 37.64692136170806, 55.769836132667685 ], [ 37.646893861708044, 55.769662132667683 ] ] } },
{ "type": "Feature", "properties": { "name": "田端", "name:en": "Tabata", "name:ja": "田端", "name:ja_rm": "Tabata", "name:ja_kana": "たばた", "name:ru": "Табата", "public_transport": "stop_position", "train": "yes" }, "geometry": { "type": "Point", "coordinates": [ 139.7617268, 35.7373818 ] } },
{ "type": "Feature", "properties": { "bridge": "yes", "electrified": "contact_line", "frequency": "0", "gauge": "1067", "layer": "1", "maxspeed": "90", "name": "山手線", "name:de": "Yamanote-Linie", "name:en": "Yamanote Line", "name:ja": "山手線", "name:ja_rm": "Yamanote-sen", "operator": "東日本旅客鉄道", "operator:en": "East Japan Railway", "operator:ja": "東日本旅客鉄道", "operator:ja_rm": "Higashi-Nihon Ryokaku Tetsudō", "railway": "rail", "source": "Bing", "usage": "main", "voltage": "1500" }, "geometry": { "type": "LineString", "coordinates": [ [ 37.642422561708067, 55.753104532667685 ], [ 37.642348361708066, 55.752934632667689 ] ] } },
{ "type": "Feature", "properties": { "electrified": "contact_line", "frequency": "0", "gauge": "1067", "maxspeed": "90", "name": "山手線", "name:de": "Yamanote-Linie", "name:en": "Yamanote Line", "name:es": "Línea Yamanote", "name:ja": "山手線", "name:ja_rm": "Yamanote-sen", "operator": "東日本旅客鉄道", "operator:en": "East Japan Railway", "operator:ja": "東日本旅客鉄道", "operator:ja_rm": "Higashi-Nihon Ryokaku Tetsudō", "railway": "rail", "source": "Bing", "usage": "main", "voltage": "1500", "name:ja_kana": "やまのてせん", "name:ru": "Линия JR Яманотэ", "railway:traffic_mode": "passenger", "level": "0" }, "geometry": { "type": "LineString", "coordinates": [ [ 37.573958661708055, 55.74915223266769 ], [ 37.573800161708057, 55.74952373266769 ], [ 37.573554261708047, 55.750098532667685 ], [ 37.573464461708063, 55.750368632667687 ], [ 37.573332361708061, 55.750854332667686 ], [ 37.57323776170805, 55.751105032667688 ], [ 37.57313196170805, 55.751366432667687 ], [ 37.57297686170805, 55.75173813266769 ], [ 37.572906061708046, 55.751934632667684 ] ] } },
{ "type": "Feature", "properties": { "electrified": "contact_line", "frequency": "0", "gauge": "1067", "layer": "1", "maxspeed": "90", "name": "山手線", "name:de": "Yamanote-Linie", "name:en": "Yamanote Line", "name:ja": "山手線", "name:ja_rm": "Yamanote-sen", "operator": "東日本旅客鉄道", "operator:en": "East Japan Railway", "operator:ja": "東日本旅客鉄道", "operator:ja_rm": "Higashi-Nihon Ryokaku Tetsudō", "railway": "rail", "source": "Bing", "usage": "main", "voltage": "1500", "name:ja_kana": "やまのてせん", "name:ru": "Линия JR Яманотэ", "railway:traffic_mode": "passenger" }, "geometry": { "type": "LineString", "coordinates": [ [ 37.572340961708058, 55.761997732667687 ], [ 37.572398261708067, 55.762368532667686 ], [ 37.57243506170807, 55.762719632667689 ], [ 37.572468561708071, 55.763041832667689 ], [ 37.572497261708044, 55.763437632667689 ] ] } },
{ "type": "Feature", "properties": { "electrified": "contact_line", "frequency": "0", "gauge": "1067", "name": "山手線", "name:en": "Yamanote Line", "name:es": "Línea Yamanote", "name:ja": "山手線", "name:ja_rm": "Yamanote-sen", "operator": "東日本旅客鉄道", "operator:en": "East Japan Railway", "operator:ja": "東日本旅客鉄道", "operator:ja_rm": "Higashi-Nihon Ryokaku Tetsudō", "railway": "rail", "source": "Bing", "voltage": "1500", "name:ja_kana": "やまのてせん" }, "geometry": { "type": "LineString", "coordinates": [ [ 37.601811561708054, 55.68235773266769 ], [ 37.601603161708063, 55.682572332667689 ], [ 37.601445161708064, 55.682738032667686 ], [ 37.600996061708067, 55.68321993266769 ], [ 37.600854861708065, 55.683380132667686 ], [ 37.600720961708056, 55.683538232667686 ], [ 37.600373361708058, 55.683978632667689 ], [ 37.599945761708064, 55.684576032667685 ], [ 37.599764661708043, 55.684870332667685 ], [ 37.59938696170807, 55.685530832667688 ] ] } },
{ "type": "Feature", "properties": { "bridge": "yes", "electrified": "contact_line", "frequency": "0", "gauge": "1067", "layer": "1", "maxspeed": "90", "name": "山手線", "name:de": "Yamanote-Linie", "name:en": "Yamanote Line", "name:es": "Línea Yamanote", "name:ja": "山手線", "name:ja_rm": "Yamanote-sen", "operator": "東日本旅客鉄道", "operator:en": "East Japan Railway", "operator:ja": "東日本旅客鉄道", "operator:ja_rm": "Higashi-Nihon Ryokaku Tetsudō", "railway": "rail", "source": "Bing", "usage": "main", "voltage": "1500" }, "geometry": { "type": "LineString", "coordinates": [ [ 37.630687361708063, 55.723549632667684 ], [ 37.630670461708071, 55.723482432667687 ] ] } },
{ "type": "Feature", "properties": { "bridge": "viaduct", "electrified": "contact_line", "frequency": "0", "gauge": "1067", "layer": "1", "maxspeed": "90", "name": "山手線", "name:de": "Yamanote-Linie", "name:en": "Yamanote Line", "name:es": "JR Yamanote", "name:ja": "山手線", "name:ja_rm": "Yamanote-sen", "operator": "東日本旅客鉄道", "operator:en": "East Japan Railway", "operator:ja": "東日本旅客鉄道", "operator:ja_rm": "Higashi-Nihon Ryokaku Tetsudō", "railway": "rail", "source": "Bing", "usage": "main", "voltage": "1500" }, "geometry": { "type": "LineString", "coordinates": [ [ 37.636176461708068, 55.73925723266769 ], [ 37.63573346170805, 55.738918532667689 ], [ 37.635487661708062, 55.738731032667687 ], [ 37.635239761708057, 55.738541932667687 ], [ 37.634909161708045, 55.738292732667688 ] ] } },
{ "type": "Feature", "properties": { "bridge": "viaduct", "electrified": "contact_line", "frequency": "0", "gauge": "1067", "layer": "1", "maxspeed": "90", "name": "山手線", "name:de": "Yamanote-Linie", "name:en": "Yamanote Line", "name:es": "Línea Yamanote", "name:ja": "山手線", "name:ja_rm": "Yamanote-sen", "operator": "東日本旅客鉄道", "operator:en": "East Japan Railway", "operator:ja": "東日本旅客鉄道", "operator:ja_rm": "Higashi-Nihon Ryokaku Tetsudō", "railway": "rail", "source": "Bing", "usage": "main", "voltage": "1500", "name:ja_kana": "やまのてせん" }, "geometry": { "type": "LineString", "coordinates": [ [ 37.648260361708061, 55.776900732667684 ], [ 37.64756126170807, 55.775888932667684 ], [ 37.647458161708052, 55.77570953266769 ], [ 37.647427561708049, 55.775645432667687 ] ] } },
{ "type": "Feature", "properties": { "name": "東京", "name:en": "Tokyo", "name:es": "Tokyo", "name:ja": "東京", "name:ja_rm": "Tōkyō", "railway": "stop", "name:ja_kana": "とうきょう", "name:ru": "Токио", "name:ko": "도쿄", "public_transport": "stop_position", "train": "yes", "name:fr": "Tokyo", "local_ref": "5" }, "geometry": { "type": "Point", "coordinates": [ 139.766609499999987, 35.681244 ] } },
{ "type": "Feature", "properties": { "bridge": "yes", "electrified": "contact_line", "frequency": "0", "gauge": "1067", "layer": "2", "maxspeed": "90", "name": "山手線", "name:de": "Yamanote-Linie", "name:en": "Yamanote Line", "name:ja": "山手線", "name:ja_rm": "Yamanote-sen", "operator": "東日本旅客鉄道", "operator:en": "East Japan Railway", "operator:ja": "東日本旅客鉄道", "operator:ja_rm": "Higashi-Nihon Ryokaku Tetsudō", "railway": "rail", "source": "Bing", "usage": "main", "voltage": "1500", "name:ja_kana": "やまのてせん", "name:ru": "Линия JR Яманотэ", "railway:traffic_mode": "passenger" }, "geometry": { "type": "LineString", "coordinates": [ [ 37.63011166170805, 55.804053832667684 ], [ 37.630469861708072, 55.803921532667687 ] ] } },
{ "type": "Feature", "properties": { "electrified": "contact_line", "frequency": "0", "gauge": "1067", "layer": "1", "maxspeed": "90", "name": "山手線", "name:de": "Yamanote-Linie", "name:en": "Yamanote Line", "name:ja": "山手線", "name:ja_rm": "Yamanote-sen", "operator": "東日本旅客鉄道", "operator:en": "East Japan Railway", "operator:ja": "東日本旅客鉄道", "operator:ja_rm": "Higashi-Nihon Ryokaku Tetsudō", "railway": "rail", "source": "Bing", "usage": "main", "voltage": "1500", "name:ja_kana": "やまのてせん", "name:ru": "Линия JR Яманотэ", "railway:traffic_mode": "passenger" }, "geometry": { "type": "LineString", "coordinates": [ [ 37.574708561708071, 55.746772932667689 ], [ 37.574638361708061, 55.746933232667686 ], [ 37.574570961708055, 55.747115632667686 ], [ 37.574411061708055, 55.74772273266769 ], [ 37.574205361708046, 55.748507632667689 ], [ 37.574092061708065, 55.748839432667687 ], [ 37.573958661708055, 55.74915223266769 ] ] } },
{ "type": "Feature", "properties": { "electrified": "contact_line", "frequency": "0", "gauge": "1067", "maxspeed": "90", "name": "山手線", "name:de": "Yamanote-Linie", "name:en": "Yamanote Line", "name:es": "JR Yamanote", "name:ja": "山手線", "name:ja_rm": "Yamanote-sen", "operator": "東日本旅客鉄道", "operator:en": "East Japan Railway", "operator:ja": "東日本旅客鉄道", "operator:ja_rm": "Higashi-Nihon Ryokaku Tetsudō", "railway": "rail", "source": "Bing", "usage": "main", "voltage": "1500", "name:ja_kana": "やまのてせん", "name:ru": "Линия JR Яманотэ", "railway:traffic_mode": "passenger", "embankment": "yes" }, "geometry": { "type": "LineString", "coordinates": [ [ 37.574662161708069, 55.720823432667686 ], [ 37.57433886170805, 55.721282132667689 ], [ 37.573982361708069, 55.721856732667689 ], [ 37.573791861708067, 55.722255732667684 ], [ 37.573637461708053, 55.722819832667689 ], [ 37.573619361708047, 55.72290933266769 ], [ 37.573597661708057, 55.723104432667689 ] ] } },
{ "type": "Feature", "properties": { "electrified": "contact_line", "frequency": "0", "gauge": "1067", "layer": "1", "maxspeed": "90", "name": "山手線", "name:de": "Yamanote-Linie", "name:en": "Yamanote Line", "name:es": "Línea Yamanote", "name:ja": "山手線", "name:ja_rm": "Yamanote-sen", "operator": "東日本旅客鉄道", "operator:en": "East Japan Railway", "operator:ja": "東日本旅客鉄道", "operator:ja_rm": "Higashi-Nihon Ryokaku Tetsudō", "railway": "rail", "source": "Bing", "usage": "main", "voltage": "1500", "name:ja_kana": "やまのてせん", "name:ru": "Линия JR Яманотэ", "railway:traffic_mode": "passenger" }, "geometry": { "type": "LineString", "coordinates": [ [ 37.581040161708053, 55.713112532667687 ], [ 37.580800661708061, 55.713547732667685 ], [ 37.580576761708052, 55.713963632667685 ], [ 37.580415861708055, 55.714241832667689 ], [ 37.580232761708068, 55.714531032667686 ] ] } },
{ "type": "Feature", "properties": { "bridge": "yes", "electrified": "contact_line", "frequency": "0", "gauge": "1067", "layer": "1", "maxspeed": "90", "name": "山手線", "name:de": "Yamanote-Linie", "name:en": "Yamanote Line", "name:ja": "山手線", "name:ja_rm": "Yamanote-sen", "operator": "東日本旅客鉄道", "operator:en": "East Japan Railway", "operator:ja": "東日本旅客鉄道", "operator:ja_rm": "Higashi-Nihon Ryokaku Tetsudō", "railway": "rail", "source": "Bing", "usage": "main", "voltage": "1500" }, "geometry": { "type": "LineString", "coordinates": [ [ 37.640412561708054, 55.748236832667686 ], [ 37.640262561708063, 55.747842032667684 ] ] } },
{ "type": "Feature", "properties": { "name": "駒込", "name:en": "Komagome", "name:ja": "駒込", "name:ja_rm": "Komagome", "name:ja_kana": "こまごめ", "name:ru": "Комагомэ", "public_transport": "stop_position", "train": "yes" }, "geometry": { "type": "Point", "coordinates": [ 139.747219, 35.7366191 ] } },
{ "type": "Feature", "properties": { "electrified": "contact_line", "frequency": "0", "gauge": "1067", "maxspeed": "90", "name": "山手線", "name:de": "Yamanote-Linie", "name:en": "Yamanote Line", "name:ja": "山手線", "name:ja_rm": "Yamanote-sen", "operator": "東日本旅客鉄道", "operator:en": "East Japan Railway", "operator:ja": "東日本旅客鉄道", "operator:ja_rm": "Higashi-Nihon Ryokaku Tetsudō", "railway": "rail", "source": "Bing", "usage": "main", "voltage": "1500", "name:ja_kana": "やまのてせん", "name:ru": "Линия JR Яманотэ", "railway:traffic_mode": "passenger" }, "geometry": { "type": "LineString", "coordinates": [ [ 37.602750761708059, 55.795023432667683 ], [ 37.603217561708057, 55.79490723266769 ], [ 37.603591561708051, 55.794825532667687 ], [ 37.603873461708055, 55.794779932667687 ], [ 37.604153961708057, 55.79474493266769 ], [ 37.604446761708068, 55.79473213266769 ], [ 37.60475616170806, 55.794726732667684 ], [ 37.605042961708058, 55.794739032667685 ], [ 37.605335761708069, 55.79475643266769 ], [ 37.605604761708044, 55.79478503266769 ], [ 37.605916961708068, 55.794832332667688 ], [ 37.606170861708058, 55.794886632667684 ], [ 37.606434761708051, 55.794953732667686 ], [ 37.606717461708065, 55.795041332667687 ], [ 37.606982861708055, 55.795135332667684 ], [ 37.607315161708051, 55.795271932667688 ], [ 37.607671861708049, 55.795422032667688 ], [ 37.607958861708063, 55.795539932667687 ], [ 37.60852926170805, 55.795774632667687 ], [ 37.608932761708054, 55.795942232667684 ], [ 37.609327561708064, 55.796104532667684 ], [ 37.609816661708045, 55.796314132667689 ], [ 37.61026116170806, 55.796510932667687 ], [ 37.610696361708058, 55.796705932667685 ], [ 37.611061761708051, 55.796880432667685 ], [ 37.611120561708056, 55.796909132667686 ], [ 37.611463561708071, 55.797076532667688 ], [ 37.61160976170806, 55.797147932667684 ] ] } },
{ "type": "Feature", "properties": { "electrified": "contact_line", "frequency": "0", "gauge": "1067", "layer": "1", "maxspeed": "90", "name": "山手線", "name:de": "Yamanote-Linie", "name:en": "Yamanote Line", "name:es": "Línea Yamanote", "name:ja": "山手線", "name:ja_rm": "Yamanote-sen", "operator": "東日本旅客鉄道", "operator:en": "East Japan Railway", "operator:ja": "東日本旅客鉄道", "operator:ja_rm": "Higashi-Nihon Ryokaku Tetsudō", "railway": "rail", "source": "Bing", "usage": "main", "voltage": "1500", "embankment": "yes" }, "geometry": { "type": "LineString", "coordinates": [ [ 37.64662646170806, 55.768029032667684 ], [ 37.64656596170807, 55.767668132667687 ], [ 37.646518461708048, 55.767395532667685 ], [ 37.646489261708048, 55.767244632667683 ], [ 37.646452061708068, 55.767095732667684 ], [ 37.646351161708061, 55.766755232667684 ], [ 37.646336661708069, 55.766712032667684 ] ] } },
{ "type": "Feature", "properties": { "electrified": "contact_line", "frequency": "0", "gauge": "1067", "maxspeed": "90", "name": "山手線", "name:de": "Yamanote-Linie", "name:en": "Yamanote Line", "name:es": "Línea Yamanote", "name:ja": "山手線", "name:ja_rm": "Yamanote-sen", "operator": "東日本旅客鉄道", "operator:en": "East Japan Railway", "operator:ja": "東日本旅客鉄道", "operator:ja_rm": "Higashi-Nihon Ryokaku Tetsudō", "railway": "rail", "source": "Bing", "usage": "main", "voltage": "1500", "name:ja_kana": "やまのてせん", "name:ru": "Линия JR Яманотэ", "railway:traffic_mode": "passenger" }, "geometry": { "type": "LineString", "coordinates": [ [ 37.601811561708054, 55.68235773266769 ], [ 37.601485261708071, 55.682751332667685 ], [ 37.601084061708072, 55.683262832667687 ], [ 37.600482761708044, 55.684029432667685 ] ] } },
{ "type": "Feature", "properties": { "bridge": "viaduct", "electrified": "contact_line", "frequency": "0", "gauge": "1067", "layer": "1", "maxspeed": "90", "name": "山手線", "name:de": "Yamanote-Linie", "name:en": "Yamanote Line", "name:es": "JR Yamanote", "name:ja": "山手線", "name:ja_rm": "Yamanote-sen", "operator": "東日本旅客鉄道", "operator:en": "East Japan Railway", "operator:ja": "東日本旅客鉄道", "operator:ja_rm": "Higashi-Nihon Ryokaku Tetsudō", "railway": "rail", "source": "Bing", "usage": "main", "voltage": "1500", "name:ko": "야마노테선" }, "geometry": { "type": "LineString", "coordinates": [ [ 37.645619661708061, 55.763187032667688 ], [ 37.645550961708047, 55.762723432667684 ], [ 37.645481361708057, 55.762151532667687 ], [ 37.64545546170806, 55.76193893266769 ], [ 37.645395861708046, 55.76143733266769 ] ] } },
{ "type": "Feature", "properties": { "electrified": "contact_line", "frequency": "0", "gauge": "1067", "layer": "1", "maxspeed": "90", "name": "山手線", "name:de": "Yamanote-Linie", "name:en": "Yamanote Line", "name:es": "JR Yamanote", "name:ja": "山手線", "name:ja_rm": "Yamanote-sen", "operator": "東日本旅客鉄道", "operator:en": "East Japan Railway", "operator:ja": "東日本旅客鉄道", "operator:ja_rm": "Higashi-Nihon Ryokaku Tetsudō", "railway": "rail", "source": "Bing", "usage": "main", "voltage": "1500", "name:ja_kana": "やまのてせん", "name:ru": "Линия JR Яманотэ", "railway:traffic_mode": "passenger", "level": "0" }, "geometry": { "type": "LineString", "coordinates": [ [ 37.572511361708059, 55.75357863266769 ], [ 37.57246796170805, 55.753878632667686 ], [ 37.57242996170806, 55.75425963266769 ], [ 37.572401761708058, 55.75459463266769 ], [ 37.572395261708046, 55.75484823266769 ], [ 37.572415661708057, 55.755562832667685 ], [ 37.572421961708052, 55.755811832667689 ], [ 37.572405961708064, 55.756084732667688 ], [ 37.572374961708057, 55.756352032667685 ], [ 37.572328561708055, 55.756603132667685 ], [ 37.572306261708071, 55.756701032667685 ], [ 37.572195061708051, 55.757144532667688 ] ] } },
{ "type": "Feature", "properties": { "bridge": "yes", "electrified": "contact_line", "frequency": "0", "gauge": "1067", "layer": "1", "maxspeed": "90", "name": "山手線", "name:de": "Yamanote-Linie", "name:en": "Yamanote Line", "name:es": "Línea Yamanote", "name:ja": "山手線", "name:ja_rm": "Yamanote-sen", "operator": "東日本旅客鉄道", "operator:en": "East Japan Railway", "operator:ja": "東日本旅客鉄道", "operator:ja_rm": "Higashi-Nihon Ryokaku Tetsudō", "railway": "rail", "source": "Bing", "usage": "main", "voltage": "1500", "name:ko": "야마노테선" }, "geometry": { "type": "LineString", "coordinates": [ [ 37.645395861708046, 55.76143733266769 ], [ 37.645370661708064, 55.761235532667683 ] ] } },
{ "type": "Feature", "properties": { "electrified": "contact_line", "frequency": "0", "gauge": "1067", "layer": "-1", "maxspeed": "90", "name": "山手線", "name:de": "Yamanote-Linie", "name:en": "Yamanote Line", "name:es": "Línea Yamanote", "name:ja": "山手線", "name:ja_rm": "Yamanote-sen", "operator": "東日本旅客鉄道", "operator:en": "East Japan Railway", "operator:ja": "東日本旅客鉄道", "operator:ja_rm": "Higashi-Nihon Ryokaku Tetsudō", "railway": "rail", "source": "Bing", "usage": "main", "voltage": "1500", "name:ja_kana": "やまのてせん", "name:ru": "Линия JR Яманотэ", "railway:traffic_mode": "passenger", "tunnel": "yes" }, "geometry": { "type": "LineString", "coordinates": [ [ 37.588836661708065, 55.695224032667689 ], [ 37.588476961708047, 55.696493332667686 ], [ 37.58816156170807, 55.697606332667689 ], [ 37.58814736170806, 55.697657332667688 ] ] } },
{ "type": "Feature", "properties": { "name": "日暮里", "name:en": "Nippori", "name:es": "JR Nippori", "name:ja": "日暮里", "name:ja_rm": "Nippori", "name:ja_kana": "にっぽり", "name:ru": "Ниппори", "public_transport": "stop_position", "train": "yes" }, "geometry": { "type": "Point", "coordinates": [ 139.770431800000011, 35.7279884 ] } },
{ "type": "Feature", "properties": { "bridge": "viaduct", "electrified": "contact_line", "frequency": "0", "gauge": "1067", "layer": "1", "maxspeed": "90", "name": "山手線", "name:de": "Yamanote-Linie", "name:en": "Yamanote Line", "name:ja": "山手線", "name:ja_rm": "Yamanote-sen", "operator": "東日本旅客鉄道", "operator:en": "East Japan Railway", "operator:ja": "東日本旅客鉄道", "operator:ja_rm": "Higashi-Nihon Ryokaku Tetsudō", "railway": "rail", "source": "Bing", "usage": "main", "voltage": "1500" }, "geometry": { "type": "LineString", "coordinates": [ [ 37.63374526170805, 55.73737173266769 ], [ 37.633624361708065, 55.737260632667684 ], [ 37.63354546170806, 55.737187332667688 ], [ 37.633339261708052, 55.736980732667689 ], [ 37.633235961708046, 55.736864732667684 ], [ 37.633152361708063, 55.736766332667685 ], [ 37.632947961708062, 55.736498832667685 ], [ 37.63287396170805, 55.736401032667686 ], [ 37.63276256170807, 55.736238832667688 ], [ 37.632701461708059, 55.73613993266769 ], [ 37.632634961708057, 55.736029032667687 ] ] } },
{ "type": "Feature", "properties": { "electrified": "contact_line", "frequency": "0", "gauge": "1067", "layer": "1", "maxspeed": "90", "name": "山手線", "name:de": "Yamanote-Linie", "name:en": "Yamanote Line", "name:ja": "山手線", "name:ja_rm": "Yamanote-sen", "operator": "東日本旅客鉄道", "operator:en": "East Japan Railway", "operator:ja": "東日本旅客鉄道", "operator:ja_rm": "Higashi-Nihon Ryokaku Tetsudō", "railway": "rail", "source": "Bing", "usage": "main", "voltage": "1500", "embankment": "yes" }, "geometry": { "type": "LineString", "coordinates": [ [ 37.630497761708064, 55.731883532667688 ], [ 37.630473861708062, 55.731734432667686 ], [ 37.630455361708051, 55.731579232667684 ] ] } },
{ "type": "Feature", "properties": { "bridge": "yes", "electrified": "contact_line", "frequency": "0", "gauge": "1067", "layer": "1", "maxspeed": "90", "name": "山手線 (Yamanote Line)", "name:de": "Yamanote-Linie", "name:en": "Yamanote Line", "name:ja": "山手線", "name:ja_rm": "Yamanote-sen", "operator": "東日本旅客鉄道", "operator:en": "East Japan Railway", "operator:ja": "東日本旅客鉄道", "operator:ja_rm": "Higashi-Nihon Ryokaku Tetsudō", "railway": "rail", "source": "Bing", "usage": "main", "voltage": "1500", "name:ja_kana": "やまのてせん", "name:ru": "Линия JR Яманотэ", "railway:traffic_mode": "passenger" }, "geometry": { "type": "LineString", "coordinates": [ [ 37.572617661708058, 55.765169132667687 ], [ 37.572633161708048, 55.76532383266769 ] ] } },
{ "type": "Feature", "properties": { "electrified": "contact_line", "frequency": "0", "gauge": "1067", "layer": "1", "maxspeed": "90", "name": "山手線", "name:de": "Yamanote-Linie", "name:en": "Yamanote Line", "name:ja": "山手線", "name:ja_rm": "Yamanote-sen", "operator": "東日本旅客鉄道", "operator:en": "East Japan Railway", "operator:ja": "東日本旅客鉄道", "operator:ja_rm": "Higashi-Nihon Ryokaku Tetsudō", "railway": "rail", "source": "Bing", "usage": "main", "voltage": "1500", "name:ja_kana": "やまのてせん", "name:ru": "Линия JR Яманотэ", "railway:traffic_mode": "passenger" }, "geometry": { "type": "LineString", "coordinates": [ [ 37.571872661708063, 55.760373232667689 ], [ 37.571952761708054, 55.760606232667683 ], [ 37.572015961708054, 55.760799032667684 ], [ 37.572113161708053, 55.761098232667685 ] ] } },
{ "type": "Feature", "properties": { "bridge": "yes", "electrified": "contact_line", "frequency": "0", "gauge": "1067", "layer": "1", "maxspeed": "90", "name": "山手線", "name:de": "Yamanote-Linie", "name:en": "Yamanote Line", "name:es": "Línea Yamanote", "name:ja": "山手線", "name:ja_rm": "Yamanote-sen", "operator": "東日本旅客鉄道", "operator:en": "East Japan Railway", "operator:ja": "東日本旅客鉄道", "operator:ja_rm": "Higashi-Nihon Ryokaku Tetsudō", "railway": "rail", "source": "Bing", "usage": "main", "voltage": "1500", "name:ja_kana": "やまのてせん", "name:ru": "Линия JR Яманотэ", "railway:traffic_mode": "passenger" }, "geometry": { "type": "LineString", "coordinates": [ [ 37.573889761708053, 55.727057632667687 ], [ 37.573926161708052, 55.727332632667689 ] ] } },
{ "type": "Feature", "properties": { "electrified": "contact_line", "frequency": "0", "gauge": "1067", "maxspeed": "90", "name": "山手線", "name:de": "Yamanote-Linie", "name:en": "Yamanote Line", "name:es": "Línea Yamanote", "name:ja": "山手線", "name:ja_rm": "Yamanote-sen", "operator": "東日本旅客鉄道", "operator:en": "East Japan Railway", "operator:ja": "東日本旅客鉄道", "operator:ja_rm": "Higashi-Nihon Ryokaku Tetsudō", "railway": "rail", "source": "Bing", "usage": "main", "voltage": "1500", "name:ja_kana": "やまのてせん", "name:ru": "Линия JR Яманотэ", "railway:traffic_mode": "passenger" }, "geometry": { "type": "LineString", "coordinates": [ [ 37.60200486170806, 55.79521063266769 ], [ 37.602491061708044, 55.795089232667685 ] ] } },
{ "type": "Feature", "properties": { "electrified": "contact_line", "frequency": "0", "gauge": "1067", "maxspeed": "90", "name": "山手線", "name:de": "Yamanote-Linie", "name:en": "Yamanote Line", "name:es": "Línea Yamanote", "name:ja": "山手線", "name:ja_rm": "Yamanote-sen", "operator": "東日本旅客鉄道", "operator:en": "East Japan Railway", "operator:ja": "東日本旅客鉄道", "operator:ja_rm": "Higashi-Nihon Ryokaku Tetsudō", "railway": "rail", "source": "Bing", "usage": "main", "voltage": "1500", "name:ja_kana": "やまのてせん", "name:ru": "Линия JR Яманотэ", "railway:traffic_mode": "passenger", "embankment": "yes" }, "geometry": { "type": "LineString", "coordinates": [ [ 37.573576761708047, 55.723387932667684 ], [ 37.573591461708055, 55.72362613266769 ], [ 37.573620561708061, 55.723927632667689 ], [ 37.573657961708058, 55.724284932667686 ], [ 37.573724761708071, 55.725014232667689 ], [ 37.573765961708069, 55.725689232667683 ], [ 37.573774561708071, 55.72579983266769 ] ] } },
{ "type": "Feature", "properties": { "name": "田端", "name:en": "Tabata", "name:ja": "田端", "name:ja_rm": "Tabata", "name:ja_kana": "たばた", "name:ru": "Табата", "public_transport": "stop_position", "train": "yes" }, "geometry": { "type": "Point", "coordinates": [ 139.761816900000014, 35.737452 ] } },
{ "type": "Feature", "properties": { "electrified": "contact_line", "frequency": "0", "gauge": "1067", "maxspeed": "90", "name": "山手線", "name:de": "Yamanote-Linie", "name:en": "Yamanote Line", "name:es": "Línea Yamanote", "name:ja": "山手線", "name:ja_rm": "Yamanote-sen", "operator": "東日本旅客鉄道", "operator:en": "East Japan Railway", "operator:ja": "東日本旅客鉄道", "operator:ja_rm": "Higashi-Nihon Ryokaku Tetsudō", "railway": "rail", "source": "Bing", "usage": "main", "voltage": "1500", "name:ja_kana": "やまのてせん", "name:ru": "Линия JR Яманотэ", "railway:traffic_mode": "passenger" }, "geometry": { "type": "LineString", "coordinates": [ [ 37.595616761708051, 55.690461732667686 ], [ 37.595385561708049, 55.690707832667684 ], [ 37.595096161708064, 55.690985532667689 ], [ 37.595016561708071, 55.691054032667687 ], [ 37.594814061708071, 55.691226232667688 ], [ 37.594515561708057, 55.691454832667688 ], [ 37.594190561708054, 55.691669932667686 ], [ 37.593866461708053, 55.691861732667689 ], [ 37.593524161708054, 55.692045832667688 ], [ 37.593158861708055, 55.692224432667686 ], [ 37.592678361708046, 55.692438732667689 ], [ 37.592633961708067, 55.692458532667686 ] ] } }
]
}
